area_code,cell_code,X,Y,Z,Status
F3,F31-01-01,1,1,1,enable
F3,F31-01-02,1,1,2,enable
F3,F31-02-01,1,2,1,enable
F3,F31-02-02,1,2,2,enable
F3,F31-03-01,2,1,1,enable
F3,F31-03-02,2,1,2,enable
F3,F31-04-01,2,2,1,enable
F3,F31-04-02,2,2,2,enable
F3,F31-05-01,3,1,1,enable
F3,F31-05-02,3,1,2,enable
F3,F31-06-01,3,2,1,enable
F3,F31-06-02,3,2,2,enable
F3,F31-07-01,4,1,1,enable
F3,F31-07-02,4,1,2,enable
F3,F31-08-01,4,2,1,enable
F3,F31-08-02,4,2,2,enable
F3,F31-09-01,5,1,1,enable
F3,F31-09-02,5,1,2,enable
F3,F31-10-01,5,2,1,enable
F3,F31-10-02,5,2,2,enable
F3,F31-11-01,6,1,1,enable
F3,F31-11-02,6,1,2,enable
F3,F31-12-01,6,2,1,enable
F3,F31-12-02,6,2,2,enable
F3,F31-13-01,7,1,1,enable
F3,F31-13-02,7,1,2,enable
F3,F31-14-01,7,2,1,enable
F3,F31-14-02,7,2,2,enable
F3,F31-15-01,8,1,1,enable
F3,F31-15-02,8,1,2,enable
F3,F31-16-01,8,2,1,enable
F3,F31-16-02,8,2,2,enable
F3,F31-17-01,9,1,1,enable
F3,F31-17-02,9,1,2,enable
F3,F31-18-01,9,2,1,enable
F3,F31-18-02,9,2,2,enable
F3,F31-19-01,10,1,1,enable
F3,F31-19-02,10,1,2,enable
F3,F31-20-01,10,2,1,enable
F3,F31-20-02,10,2,2,enable
F1,F11-01-01,1,1,1,disable
F1,F11-02-01,1,2,1,disable
F1,F11-03-01,2,1,1,disable
F1,F11-04-01,2,2,1,disable
F1,F11-05-01,3,1,1,disable
F1,F11-06-01,3,2,1,disable
F1,F11-07-01,4,1,1,disable
F1,F11-08-01,4,2,1,disable
F1,F11-09-01,5,1,1,disable
F1,F11-10-01,5,2,1,disable
F1,F11-11-01,6,1,1,disable
F1,F11-12-01,6,2,1,disable
F1,F11-13-01,7,1,1,enable
F1,F11-13-02,7,1,2,enable
F1,F11-14-01,7,2,1,enable
F1,F11-14-02,7,2,2,enable
F1,F11-15-01,8,1,1,enable
F1,F11-15-02,8,1,2,enable
F1,F11-16-01,8,2,1,enable
F1,F11-16-02,8,2,2,enable
F1,F11-17-01,9,1,1,enable
F1,F11-17-02,9,1,2,enable
F1,F11-18-01,9,2,1,enable
F1,F11-18-02,9,2,2,enable
F1,F11-19-01,10,1,1,enable
F1,F11-19-02,10,1,2,enable
F1,F11-20-01,10,2,1,enable
F1,F11-20-02,10,2,2,enable
F1,F11-21-01,11,1,1,enable
F1,F11-21-02,11,1,2,enable
F1,F11-22-01,11,2,1,enable
F1,F11-22-02,11,2,2,enable
F1,F11-23-01,12,1,1,enable
F1,F11-23-02,12,1,2,enable
F1,F11-24-01,12,2,1,enable
F1,F11-24-02,12,2,2,enable
F1,F11-25-01,13,1,1,enable
F1,F11-25-02,13,1,2,enable
F1,F11-26-01,13,2,1,enable
F1,F11-26-02,13,2,2,enable
F1,F11-27-01,14,1,1,enable
F1,F11-27-02,14,1,2,enable
F1,F11-28-01,14,2,1,enable
F1,F11-28-02,14,2,2,enable
F1,F11-29-01,15,1,1,enable
F1,F11-29-02,15,1,2,enable
F1,F11-30-01,15,2,1,enable
F1,F11-30-02,15,2,2,enable
F1,F11-31-01,16,1,1,enable
F1,F11-31-02,16,1,2,enable
F1,F11-32-01,16,2,1,enable
F1,F11-32-02,16,2,2,enable
F1,F11-33-01,17,1,1,enable
F1,F11-33-02,17,1,2,enable
F1,F11-34-01,17,2,1,enable
F1,F11-34-02,17,2,2,enable
F1,F11-35-01,18,1,1,enable
F1,F11-35-02,18,1,2,enable
F1,F11-36-01,18,2,1,enable
F1,F11-36-02,18,2,2,enable
F1,F11-37-01,19,1,1,enable
F1,F11-38-01,19,2,1,enable
F1,F12-02-01,1,3,1,disable
F1,F12-04-01,2,3,1,disable
F1,F12-06-01,3,3,1,disable
F1,F12-08-01,4,3,1,disable
F1,F12-10-01,5,3,1,disable
F1,F12-12-01,6,3,1,disable
F1,F12-14-01,7,3,1,enable
F1,F12-16-01,8,3,1,enable
F1,F12-18-01,9,3,1,enable
F1,F12-20-01,10,3,1,enable
F1,F12-22-01,11,3,1,enable
F1,F12-24-01,12,3,1,enable
F1,F12-26-01,13,3,1,enable
F1,F12-28-01,14,3,1,enable
F1,F12-30-01,15,3,1,enable
F1,F12-32-01,16,3,1,enable
F1,F12-34-01,17,3,1,enable
F1,F12-36-01,18,3,1,enable
F0,F01-02-01,1,2,1,enable
F0,F01-02-02,1,2,2,enable
F0,F01-02-03,1,2,3,enable
F0,F01-03-01,2,1,1,enable
F0,F01-03-02,2,1,2,enable
F0,F01-03-03,2,1,3,enable
F0,F01-04-01,2,2,1,enable
F0,F01-04-02,2,2,2,enable
F0,F01-04-03,2,2,3,enable
F0,F01-05-01,3,1,1,enable
F0,F01-05-02,3,1,2,enable
F0,F01-05-03,3,1,3,enable
F0,F01-06-01,3,2,1,enable
F0,F01-06-02,3,2,2,enable
F0,F01-06-03,3,2,3,enable
F0,F01-07-01,4,1,1,enable
F0,F01-07-02,4,1,2,enable
F0,F01-07-03,4,1,3,enable
F0,F01-08-01,4,2,1,enable
F0,F01-08-02,4,2,2,enable
F0,F01-08-03,4,2,3,enable
F0,F01-09-01,5,1,1,enable
F0,F01-09-02,5,1,2,enable
F0,F01-09-03,5,1,3,enable
F0,F01-10-01,5,2,1,enable
F0,F01-10-02,5,2,2,enable
F0,F01-10-03,5,2,3,enable
F0,F01-11-01,6,1,1,enable
F0,F01-11-02,6,1,2,enable
F0,F01-11-03,6,1,3,enable
F0,F01-12-01,6,2,1,enable
F0,F01-12-02,6,2,2,enable
F0,F01-12-03,6,2,3,enable
F0,F01-13-01,7,1,1,enable
F0,F01-13-02,7,1,2,enable
F0,F01-13-03,7,1,3,enable
F0,F01-14-01,7,2,1,enable
F0,F01-14-02,7,2,2,enable
F0,F01-14-03,7,2,3,enable
F0,F01-15-01,8,1,1,enable
F0,F01-15-02,8,1,2,enable
F0,F01-15-03,8,1,3,enable
F0,F01-16-01,8,2,1,enable
F0,F01-16-02,8,2,2,enable
F0,F01-16-03,8,2,3,enable
F0,F01-17-01,9,1,1,enable
F0,F01-17-02,9,1,2,enable
F0,F01-17-03,9,1,3,enable
F0,F01-18-01,9,2,1,enable
F0,F01-18-02,9,2,2,enable
F0,F01-18-03,9,2,3,enable
F0,F01-19-01,10,1,1,enable
F0,F01-19-02,10,1,2,enable
F0,F01-19-03,10,1,3,enable
F0,F01-20-01,10,2,1,enable
F0,F01-20-02,10,2,2,enable
F0,F01-20-03,10,2,3,enable
F0,F01-21-01,11,1,1,enable
F0,F01-21-02,11,1,2,enable
F0,F01-21-03,11,1,3,enable
F0,F01-22-01,11,2,1,enable
F0,F01-22-02,11,2,2,enable
F0,F01-22-03,11,2,3,enable
F0,F01-23-01,12,1,1,enable
F0,F01-23-02,12,1,2,enable
F0,F01-23-03,12,1,3,enable
F0,F01-24-01,12,2,1,enable
F0,F01-24-02,12,2,2,enable
F0,F01-24-03,12,2,3,enable
F0,F01-25-01,13,1,1,enable
F0,F01-25-02,13,1,2,enable
F0,F01-25-03,13,1,3,enable
F0,F01-26-01,13,2,1,enable
F0,F01-26-02,13,2,2,enable
F0,F01-26-03,13,2,3,enable
F0,F01-27-01,14,1,1,enable
F0,F01-27-02,14,1,2,enable
F0,F01-27-03,14,1,3,enable
F0,F01-28-01,14,2,1,enable
F0,F01-28-02,14,2,2,enable
F0,F01-28-03,14,2,3,enable
F0,F02-01-01,1,3,1,enable
F0,F02-01-02,1,3,2,enable
F0,F02-02-01,1,4,1,enable
F0,F02-02-02,1,4,2,enable
F0,F02-03-01,2,3,1,enable
F0,F02-03-02,2,3,2,enable
F0,F02-04-01,2,4,1,enable
F0,F02-04-02,2,4,2,enable
F0,F02-05-01,3,3,1,enable
F0,F02-05-02,3,3,2,enable
F0,F02-06-01,3,4,1,enable
F0,F02-06-02,3,4,2,enable
F0,F02-07-01,4,3,1,enable
F0,F02-07-02,4,3,2,enable
F0,F02-08-01,4,4,1,enable
F0,F02-08-02,4,4,2,enable
F0,F02-09-01,5,3,1,enable
F0,F02-09-02,5,3,2,enable
F0,F02-10-01,5,4,1,enable
F0,F02-10-02,5,4,2,enable
F0,F02-11-01,6,3,1,enable
F0,F02-11-02,6,3,2,enable
F0,F02-12-01,6,4,1,enable
F0,F02-12-02,6,4,2,enable
F0,F02-13-01,7,3,1,enable
F0,F02-13-02,7,3,2,enable
F0,F02-14-01,7,4,1,enable
F0,F02-14-02,7,4,2,enable
F0,F02-15-01,8,3,1,enable
F0,F02-15-02,8,3,2,enable
F0,F02-16-01,8,4,1,enable
F0,F02-16-02,8,4,2,enable
F0,F02-17-01,9,3,1,enable
F0,F02-17-02,9,3,2,enable
F0,F02-18-01,9,4,1,enable
F0,F02-18-02,9,4,2,enable
F0,F02-19-01,10,3,1,enable
F0,F02-19-02,10,3,2,enable
F0,F02-20-01,10,4,1,enable
F0,F02-20-02,10,4,2,enable
F0,F02-21-01,11,3,1,enable
F0,F02-21-02,11,3,2,enable
F0,F02-22-01,11,4,1,enable
F0,F02-22-02,11,4,2,enable
F0,F02-23-01,12,3,1,enable
F0,F02-23-02,12,3,2,enable
F0,F02-24-01,12,4,1,enable
F0,F02-24-02,12,4,2,enable
F0,F02-25-01,13,3,1,enable
F0,F02-25-02,13,3,2,enable
F0,F02-26-01,13,4,1,enable
F0,F02-26-02,13,4,2,enable
F0,F02-27-01,14,3,1,enable
F0,F02-27-02,14,3,2,enable
F0,F02-28-01,14,4,1,enable
F0,F02-28-02,14,4,2,enable
F0,F03-01-01,1,5,1,enable
F0,F03-01-02,1,5,2,enable
F0,F03-02-01,1,6,1,enable
F0,F03-02-02,1,6,2,enable
F0,F03-02-03,1,6,3,enable
F0,F03-03-01,2,5,1,enable
F0,F03-03-02,2,5,2,enable
F0,F03-03-03,2,5,3,enable
F0,F03-04-01,2,6,1,enable
F0,F03-04-02,2,6,2,enable
F0,F03-04-03,2,6,3,enable
F0,F03-05-01,3,5,1,enable
F0,F03-05-02,3,5,2,enable
F0,F03-05-03,3,5,3,enable
F0,F03-06-01,3,6,1,enable
F0,F03-06-02,3,6,2,enable
F0,F03-06-03,3,6,3,enable
F0,F03-07-01,4,5,1,enable
F0,F03-07-02,4,5,2,enable
F0,F03-07-03,4,5,3,enable
F0,F03-08-01,4,6,1,enable
F0,F03-08-02,4,6,2,enable
F0,F03-08-03,4,6,3,enable
F0,F03-09-01,5,5,1,enable
F0,F03-09-02,5,5,2,enable
F0,F03-09-03,5,5,3,enable
F0,F03-10-01,5,6,1,enable
F0,F03-10-02,5,6,2,enable
F0,F03-10-03,5,6,3,enable
F0,F03-11-01,6,5,1,enable
F0,F03-11-02,6,5,2,enable
F0,F03-11-03,6,5,3,enable
F0,F03-12-01,6,6,1,enable
F0,F03-12-02,6,6,2,enable
F0,F03-12-03,6,6,3,enable
F0,F03-13-01,7,5,1,enable
F0,F03-13-02,7,5,2,enable
F0,F03-13-03,7,5,3,enable
F0,F03-14-01,7,6,1,enable
F0,F03-14-02,7,6,2,enable
F0,F03-14-03,7,6,3,enable
F0,F03-15-01,8,5,1,enable
F0,F03-15-02,8,5,2,enable
F0,F03-15-03,8,5,3,enable
F0,F03-16-01,8,6,1,enable
F0,F03-16-02,8,6,2,enable
F0,F03-16-03,8,6,3,enable
F0,F03-17-01,9,5,1,enable
F0,F03-17-02,9,5,2,enable
F0,F03-17-03,9,5,3,enable
F0,F03-18-01,9,6,1,enable
F0,F03-18-02,9,6,2,enable
F0,F03-18-03,9,6,3,enable
F0,F03-19-01,10,5,1,enable
F0,F03-19-02,10,5,2,enable
F0,F03-19-03,10,5,3,enable
F0,F03-20-01,10,6,1,enable
F0,F03-20-02,10,6,2,enable
F0,F03-20-03,10,6,3,enable
F0,F03-21-01,11,5,1,enable
F0,F03-21-02,11,5,2,enable
F0,F03-21-03,11,5,3,enable
F0,F03-22-01,11,6,1,enable
F0,F03-22-02,11,6,2,enable
F0,F03-22-03,11,6,3,enable
F0,F03-23-01,12,5,1,enable
F0,F03-23-02,12,5,2,enable
F0,F03-23-03,12,5,3,enable
F0,F03-24-01,12,6,1,enable
F0,F03-24-02,12,6,2,enable
F0,F03-24-03,12,6,3,enable
F0,F03-25-01,13,5,1,enable
F0,F03-25-02,13,5,2,enable
F0,F03-25-03,13,5,3,enable
F0,F03-26-01,13,6,1,enable
F0,F03-26-02,13,6,2,enable
F0,F03-26-03,13,6,3,enable
F0,F03-27-01,14,5,1,enable
F0,F03-27-02,14,5,2,enable
F0,F03-27-03,14,5,3,enable
F0,F03-28-01,14,6,1,enable
F0,F03-28-02,14,6,2,enable
F0,F03-28-03,14,6,3,enable
F0,F04-02-01,1,8,1,enable
F0,F04-02-02,1,8,2,enable
F0,F04-04-01,2,8,1,enable
F0,F04-04-02,2,8,2,enable
F0,F04-06-01,3,8,1,enable
F0,F04-06-02,3,8,2,enable
F0,F04-06-03,3,8,3,enable
F0,F04-08-01,4,8,1,enable
F0,F04-08-02,4,8,2,enable
F0,F04-08-03,4,8,3,enable
F0,F04-10-01,5,8,1,enable
F0,F04-10-02,5,8,2,enable
F0,F04-10-03,5,8,3,enable
F0,F04-12-01,6,8,1,enable
F0,F04-12-02,6,8,2,enable
F0,F04-12-03,6,8,3,enable
F0,F04-13-01,7,7,1,enable
F0,F04-13-02,7,7,2,enable
F0,F04-13-03,7,7,3,enable
F0,F04-14-01,7,8,1,enable
F0,F04-14-02,7,8,2,enable
F0,F04-14-03,7,8,3,enable
F0,F04-15-01,8,7,1,enable
F0,F04-15-02,8,7,2,enable
F0,F04-15-03,8,7,3,enable
F0,F04-16-01,8,8,1,enable
F0,F04-16-02,8,8,2,enable
F0,F04-16-03,8,8,3,enable
F0,F04-17-01,9,7,1,enable
F0,F04-17-02,9,7,2,enable
F0,F04-17-03,9,7,3,enable
F0,F04-18-01,9,8,1,enable
F0,F04-18-02,9,8,2,enable
F0,F04-18-03,9,8,3,enable
F0,F04-19-01,10,7,1,enable
F0,F04-19-02,10,7,2,enable
F0,F04-19-03,10,7,3,enable
F0,F04-20-01,10,8,1,enable
F0,F04-20-02,10,8,2,enable
F0,F04-20-03,10,8,3,enable
F0,F04-21-01,11,7,1,enable
F0,F04-21-02,11,7,2,enable
F0,F04-21-03,11,7,3,enable
F0,F04-22-01,11,8,1,enable
F0,F04-22-02,11,8,2,enable
F0,F04-22-03,11,8,3,enable
F0,F04-23-01,12,7,1,enable
F0,F04-23-02,12,7,2,enable
F0,F04-23-03,12,7,3,enable
F0,F04-24-01,12,8,1,enable
F0,F04-24-02,12,8,2,enable
F0,F04-24-03,12,8,3,enable
F0,F04-25-01,13,7,1,enable
F0,F04-25-02,13,7,2,enable
F0,F04-25-03,13,7,3,enable
F0,F04-26-01,13,8,1,enable
F0,F04-26-02,13,8,2,enable
F0,F04-26-03,13,8,3,enable
F0,F04-27-01,14,7,1,enable
F0,F04-27-02,14,7,2,enable
F0,F04-27-03,14,7,3,enable
F0,F04-28-01,14,8,1,enable
F0,F04-28-02,14,8,2,enable
F0,F04-28-03,14,8,3,enable
D1,01-01-01-L1,1,1,1,enable
D1,01-02-01-L1,1,2,1,enable
D1,01-03-01-L1,2,1,1,enable
D1,01-04-01-L1,2,2,1,enable
D1,01-05-01-L1,3,1,1,enable
D1,01-06-01-L1,3,2,1,enable
D1,01-07-01-L1,4,1,1,enable
D1,01-08-01-L1,4,2,1,enable
D1,01-09-01-L1,5,1,1,enable
D1,01-10-01-L1,5,2,1,enable
D1,01-11-01-L1,6,1,1,enable
D1,01-12-01-L1,6,2,1,enable
D1,01-13-01-L1,7,1,1,enable
D1,01-14-01-L1,7,2,1,enable
D1,01-15-01-L1,8,1,1,enable
D1,01-16-01-L1,8,2,1,enable
D1,01-17-01-L1,9,1,1,enable
D1,01-18-01-L1,9,2,1,enable
D1,01-19-01-L1,10,1,1,enable
D1,01-20-01-L1,10,2,1,enable
D1,01-21-01-L1,11,1,1,enable
D1,01-22-01-L1,11,2,1,enable
D1,01-23-01-L1,12,1,1,enable
D1,01-24-01-L1,12,2,1,enable
D1,01-25-01-L1,13,1,1,enable
D1,01-26-01-L1,13,2,1,enable
D1,01-27-01-L1,14,1,1,enable
D1,01-28-01-L1,14,2,1,enable
D1,01-29-01-L1,15,1,1,enable
D1,01-30-01-L1,15,2,1,enable
D1,01-31-01-L1,16,1,1,enable
D1,01-32-01-L1,16,2,1,enable
D1,01-33-01-L1,17,1,1,enable
D1,01-34-01-L1,17,2,1,enable
D1,01-35-01-L1,18,1,1,enable
D1,01-36-01-L1,18,2,1,enable
D1,01-37-01-L1,19,1,1,enable
D1,01-38-01-L1,19,2,1,enable
D1,01-39-01-L1,20,1,1,enable
D1,01-40-01-L1,20,2,1,enable
D1,01-41-01-L1,21,1,1,enable
D1,01-42-01-L1,21,2,1,enable
D1,01-43-01-L1,22,1,1,enable
D1,01-44-01-L1,22,2,1,enable
D1,01-45-01-L1,23,1,1,enable
D1,01-46-01-L1,23,2,1,enable
D1,01-47-01-L1,24,1,1,enable
D1,01-48-01-L1,24,2,1,enable
D1,01-49-01-L1,25,1,1,enable
D1,01-50-01-L1,25,2,1,enable
D1,01-51-01-L1,26,1,1,enable
D1,01-52-01-L1,26,2,1,enable
D1,01-53-01-L1,27,1,1,enable
D1,01-54-01-L1,27,2,1,enable
D1,01-55-01-L1,28,1,1,enable
D1,01-56-01-L1,28,2,1,enable
D1,01-57-01-L1,29,1,1,enable
D1,02-01-01-L1,1,3,1,enable
D1,02-01-01-L2,1,3,2,enable
D1,02-01-01-LS,1,3,3,enable
D1,02-02-01-L1,1,4,1,enable
D1,02-02-01-L2,1,4,2,enable
D1,02-02-01-LS,1,4,3,enable
D1,02-03-01-L1,2,3,1,enable
D1,02-03-01-L2,2,3,2,enable
D1,02-03-01-LS,2,3,3,enable
D1,02-04-01-L1,2,4,1,enable
D1,02-04-01-L2,2,4,2,enable
D1,02-04-01-LS,2,4,3,enable
D1,02-05-01-L1,3,3,1,enable
D1,02-05-01-L2,3,3,2,enable
D1,02-05-01-LS,3,3,3,enable
D1,02-06-01-L1,3,4,1,enable
D1,02-06-01-L2,3,4,2,enable
D1,02-06-01-LS,3,4,3,enable
D1,02-07-01-L1,4,3,1,enable
D1,02-07-01-L2,4,3,2,enable
D1,02-07-01-LS,4,3,3,enable
D1,02-08-01-L1,4,4,1,enable
D1,02-08-01-L2,4,4,2,enable
D1,02-08-01-LS,4,4,3,enable
D1,02-09-01-L1,5,3,1,enable
D1,02-09-01-L2,5,3,2,enable
D1,02-09-01-LS,5,3,3,enable
D1,02-10-01-L1,5,4,1,enable
D1,02-10-01-L2,5,4,2,enable
D1,02-10-01-LS,5,4,3,enable
D1,02-11-01-L1,6,3,1,enable
D1,02-11-01-L2,6,3,2,enable
D1,02-11-01-LS,6,3,3,enable
D1,02-12-01-L1,6,4,1,enable
D1,02-12-01-L2,6,4,2,enable
D1,02-12-01-LS,6,4,3,enable
D1,02-13-01-L1,7,3,1,enable
D1,02-13-01-L2,7,3,2,enable
D1,02-13-01-LS,7,3,3,enable
D1,02-14-01-L1,7,4,1,enable
D1,02-14-01-L2,7,4,2,enable
D1,02-14-01-LS,7,4,3,enable
D1,02-15-01-L1,8,3,1,enable
D1,02-15-01-L2,8,3,2,enable
D1,02-15-01-LS,8,3,3,enable
D1,02-16-01-L1,8,4,1,enable
D1,02-16-01-L2,8,4,2,enable
D1,02-16-01-LS,8,4,3,enable
D1,02-17-01-L1,9,3,1,enable
D1,02-17-01-L2,9,3,2,enable
D1,02-17-01-LS,9,3,3,enable
D1,02-18-01-L1,9,4,1,enable
D1,02-18-01-L2,9,4,2,enable
D1,02-18-01-LS,9,4,3,enable
D1,02-19-01-L1,10,3,1,enable
D1,02-19-01-L2,10,3,2,enable
D1,02-19-01-LS,10,3,3,enable
D1,02-20-01-L1,10,4,1,enable
D1,02-20-01-L2,10,4,2,enable
D1,02-20-01-LS,10,4,3,enable
D1,02-21-01-L1,11,3,1,enable
D1,02-21-01-L2,11,3,2,enable
D1,02-21-01-LS,11,3,3,enable
D1,02-22-01-L1,11,4,1,enable
D1,02-22-01-L2,11,4,2,enable
D1,02-22-01-LS,11,4,3,enable
D1,02-23-01-L1,12,3,1,enable
D1,02-23-01-L2,12,3,2,enable
D1,02-23-01-LS,12,3,3,enable
D1,02-24-01-L1,12,4,1,enable
D1,02-24-01-L2,12,4,2,enable
D1,02-24-01-LS,12,4,3,enable
D1,02-25-01-L1,13,3,1,enable
D1,02-25-01-L2,13,3,2,enable
D1,02-25-01-LS,13,3,3,enable
D1,02-26-01-L1,13,4,1,enable
D1,02-26-01-L2,13,4,2,enable
D1,02-26-01-LS,13,4,3,enable
D1,02-27-01-L1,14,3,1,enable
D1,02-27-01-L2,14,3,2,enable
D1,02-27-01-LS,14,3,3,enable
D1,02-28-01-L1,14,4,1,enable
D1,02-28-01-L2,14,4,2,enable
D1,02-28-01-LS,14,4,3,enable
D1,02-29-01-L1,15,3,1,enable
D1,02-29-01-L2,15,3,2,enable
D1,02-29-01-LS,15,3,3,enable
D1,02-30-01-L1,15,4,1,enable
D1,02-30-01-L2,15,4,2,enable
D1,02-30-01-LS,15,4,3,enable
D1,02-31-01-L1,16,3,1,enable
D1,02-31-01-L2,16,3,2,enable
D1,02-31-01-LS,16,3,3,enable
D1,02-32-01-L1,16,4,1,enable
D1,02-32-01-L2,16,4,2,enable
D1,02-32-01-LS,16,4,3,enable
D1,02-33-01-L1,17,3,1,enable
D1,02-33-01-L2,17,3,2,enable
D1,02-33-01-LS,17,3,3,enable
D1,02-34-01-L1,17,4,1,enable
D1,02-34-01-L2,17,4,2,enable
D1,02-34-01-LS,17,4,3,enable
D1,02-35-01-L1,18,3,1,enable
D1,02-35-01-L2,18,3,2,enable
D1,02-35-01-LS,18,3,3,enable
D1,02-36-01-L1,18,4,1,enable
D1,02-36-01-L2,18,4,2,enable
D1,02-36-01-LS,18,4,3,enable
D1,02-37-01-L1,19,3,1,enable
D1,02-37-01-L2,19,3,2,enable
D1,02-37-01-LS,19,3,3,enable
D1,02-38-01-L1,19,4,1,enable
D1,02-38-01-L2,19,4,2,enable
D1,02-38-01-LS,19,4,3,enable
D1,02-39-01-L1,20,3,1,enable
D1,02-39-01-L2,20,3,2,enable
D1,02-39-01-LS,20,3,3,enable
D1,02-40-01-L1,20,4,1,enable
D1,02-40-01-L2,20,4,2,enable
D1,02-40-01-LS,20,4,3,enable
D1,02-41-01-L1,21,3,1,enable
D1,02-41-01-L2,21,3,2,enable
D1,02-41-01-LS,21,3,3,enable
D1,02-42-01-L1,21,4,1,enable
D1,02-42-01-L2,21,4,2,enable
D1,02-42-01-LS,21,4,3,enable
D1,02-43-01-L1,22,3,1,enable
D1,02-43-01-L2,22,3,2,enable
D1,02-43-01-LS,22,3,3,enable
D1,02-44-01-L1,22,4,1,enable
D1,02-44-01-L2,22,4,2,enable
D1,02-44-01-LS,22,4,3,enable
D1,02-45-01-L1,23,3,1,enable
D1,02-45-01-L2,23,3,2,enable
D1,02-45-01-LS,23,3,3,enable
D1,02-46-01-L1,23,4,1,enable
D1,02-46-01-L2,23,4,2,enable
D1,02-46-01-LS,23,4,3,enable
D1,02-47-01-L1,24,3,1,enable
D1,02-47-01-L2,24,3,2,enable
D1,02-47-01-LS,24,3,3,enable
D1,02-48-01-L1,24,4,1,enable
D1,02-48-01-L2,24,4,2,enable
D1,02-48-01-LS,24,4,3,enable
D1,02-49-01-L1,25,3,1,enable
D1,02-49-01-L2,25,3,2,enable
D1,02-49-01-LS,25,3,3,enable
D1,02-50-01-L1,25,4,1,enable
D1,02-50-01-L2,25,4,2,enable
D1,02-50-01-LS,25,4,3,enable
D1,02-51-01-L1,26,3,1,enable
D1,02-51-01-L2,26,3,2,enable
D1,02-51-01-LS,26,3,3,enable
D1,02-52-01-L1,26,4,1,enable
D1,02-52-01-L2,26,4,2,enable
D1,02-52-01-LS,26,4,3,enable
D1,02-53-01-L1,27,3,1,enable
D1,02-53-01-L2,27,3,2,enable
D1,02-53-01-LS,27,3,3,enable
D1,02-54-01-L1,27,4,1,enable
D1,02-54-01-L2,27,4,2,enable
D1,02-54-01-LS,27,4,3,enable
D1,02-55-01-L1,28,3,1,enable
D1,02-55-01-L2,28,3,2,enable
D1,02-55-01-LS,28,3,3,enable
D1,02-56-01-L1,28,4,1,enable
D1,02-56-01-L2,28,4,2,enable
D1,02-56-01-LS,28,4,3,enable
D1,03-01-01-L1,1,5,1,enable
D1,03-01-01-L2,1,5,2,enable
D1,03-01-01-LS,1,5,3,enable
D1,03-02-01-L1,1,6,1,enable
D1,03-02-01-L2,1,6,2,enable
D1,03-02-01-LS,1,6,3,enable
D1,03-03-01-L1,2,5,1,enable
D1,03-03-01-L2,2,5,2,enable
D1,03-03-01-LS,2,5,3,enable
D1,03-04-01-L1,2,6,1,enable
D1,03-04-01-L2,2,6,2,enable
D1,03-04-01-LS,2,6,3,enable
D1,03-05-01-L1,3,5,1,enable
D1,03-05-01-L2,3,5,2,enable
D1,03-05-01-LS,3,5,3,enable
D1,03-06-01-L1,3,6,1,enable
D1,03-06-01-L2,3,6,2,enable
D1,03-06-01-LS,3,6,3,enable
D1,03-07-01-L1,4,5,1,enable
D1,03-07-01-L2,4,5,2,enable
D1,03-07-01-LS,4,5,3,enable
D1,03-08-01-L1,4,6,1,enable
D1,03-08-01-L2,4,6,2,enable
D1,03-08-01-LS,4,6,3,enable
D1,03-09-01-L1,5,5,1,enable
D1,03-09-01-L2,5,5,2,enable
D1,03-09-01-LS,5,5,3,enable
D1,03-10-01-L1,5,6,1,enable
D1,03-10-01-L2,5,6,2,enable
D1,03-10-01-LS,5,6,3,enable
D1,03-11-01-L1,6,5,1,enable
D1,03-11-01-L2,6,5,2,enable
D1,03-11-01-LS,6,5,3,enable
D1,03-12-01-L1,6,6,1,enable
D1,03-12-01-L2,6,6,2,enable
D1,03-12-01-LS,6,6,3,enable
D1,03-13-01-L1,7,5,1,enable
D1,03-13-01-L2,7,5,2,enable
D1,03-13-01-LS,7,5,3,enable
D1,03-14-01-L1,7,6,1,enable
D1,03-14-01-L2,7,6,2,enable
D1,03-14-01-LS,7,6,3,enable
D1,03-15-01-L1,8,5,1,enable
D1,03-15-01-L2,8,5,2,enable
D1,03-15-01-LS,8,5,3,enable
D1,03-16-01-L1,8,6,1,enable
D1,03-16-01-L2,8,6,2,enable
D1,03-16-01-LS,8,6,3,enable
D1,03-17-01-L1,9,5,1,enable
D1,03-17-01-L2,9,5,2,enable
D1,03-17-01-LS,9,5,3,enable
D1,03-18-01-L1,9,6,1,enable
D1,03-18-01-L2,9,6,2,enable
D1,03-18-01-LS,9,6,3,enable
D1,03-19-01-L1,10,5,1,enable
D1,03-19-01-L2,10,5,2,enable
D1,03-19-01-LS,10,5,3,enable
D1,03-20-01-L1,10,6,1,enable
D1,03-20-01-L2,10,6,2,enable
D1,03-20-01-LS,10,6,3,enable
D1,03-21-01-L1,11,5,1,enable
D1,03-21-01-L2,11,5,2,enable
D1,03-21-01-LS,11,5,3,enable
D1,03-22-01-L1,11,6,1,enable
D1,03-22-01-L2,11,6,2,enable
D1,03-22-01-LS,11,6,3,enable
D1,03-23-01-L1,12,5,1,enable
D1,03-23-01-L2,12,5,2,enable
D1,03-23-01-LS,12,5,3,enable
D1,03-24-01-L1,12,6,1,enable
D1,03-24-01-L2,12,6,2,enable
D1,03-24-01-LS,12,6,3,enable
D1,03-25-01-L1,13,5,1,enable
D1,03-25-01-L2,13,5,2,enable
D1,03-25-01-LS,13,5,3,enable
D1,03-26-01-L1,13,6,1,enable
D1,03-26-01-L2,13,6,2,enable
D1,03-26-01-LS,13,6,3,enable
D1,03-27-01-L1,14,5,1,enable
D1,03-27-01-L2,14,5,2,enable
D1,03-27-01-LS,14,5,3,enable
D1,03-28-01-L1,14,6,1,enable
D1,03-28-01-L2,14,6,2,enable
D1,03-28-01-LS,14,6,3,enable
D1,03-29-01-L1,15,5,1,enable
D1,03-29-01-L2,15,5,2,enable
D1,03-29-01-LS,15,5,3,enable
D1,03-30-01-L1,15,6,1,enable
D1,03-30-01-L2,15,6,2,enable
D1,03-30-01-LS,15,6,3,enable
D1,03-31-01-L1,16,5,1,enable
D1,03-31-01-L2,16,5,2,enable
D1,03-31-01-LS,16,5,3,enable
D1,03-32-01-L1,16,6,1,enable
D1,03-32-01-L2,16,6,2,enable
D1,03-32-01-LS,16,6,3,enable
D1,03-33-01-L1,17,5,1,enable
D1,03-33-01-L2,17,5,2,enable
D1,03-33-01-LS,17,5,3,enable
D1,03-34-01-L1,17,6,1,enable
D1,03-34-01-L2,17,6,2,enable
D1,03-34-01-LS,17,6,3,enable
D1,03-35-01-L1,18,5,1,enable
D1,03-35-01-L2,18,5,2,enable
D1,03-35-01-LS,18,5,3,enable
D1,03-36-01-L1,18,6,1,enable
D1,03-36-01-L2,18,6,2,enable
D1,03-36-01-LS,18,6,3,enable
D1,03-37-01-L1,19,5,1,enable
D1,03-37-01-L2,19,5,2,enable
D1,03-37-01-LS,19,5,3,enable
D1,03-38-01-L1,19,6,1,enable
D1,03-38-01-L2,19,6,2,enable
D1,03-38-01-LS,19,6,3,enable
D1,03-39-01-L1,20,5,1,enable
D1,03-39-01-L2,20,5,2,enable
D1,03-39-01-LS,20,5,3,enable
D1,03-40-01-L1,20,6,1,enable
D1,03-40-01-L2,20,6,2,enable
D1,03-40-01-LS,20,6,3,enable
D1,03-41-01-L1,21,5,1,enable
D1,03-41-01-L2,21,5,2,enable
D1,03-41-01-LS,21,5,3,enable
D1,03-42-01-L1,21,6,1,enable
D1,03-42-01-L2,21,6,2,enable
D1,03-42-01-LS,21,6,3,enable
D1,03-43-01-L1,22,5,1,enable
D1,03-43-01-L2,22,5,2,enable
D1,03-43-01-LS,22,5,3,enable
D1,03-44-01-L1,22,6,1,enable
D1,03-44-01-L2,22,6,2,enable
D1,03-44-01-LS,22,6,3,enable
D1,03-45-01-L1,23,5,1,enable
D1,03-45-01-L2,23,5,2,enable
D1,03-45-01-LS,23,5,3,enable
D1,03-46-01-L1,23,6,1,enable
D1,03-46-01-L2,23,6,2,enable
D1,03-46-01-LS,23,6,3,enable
D1,03-47-01-L1,24,5,1,enable
D1,03-47-01-L2,24,5,2,enable
D1,03-47-01-LS,24,5,3,enable
D1,03-48-01-L1,24,6,1,enable
D1,03-48-01-L2,24,6,2,enable
D1,03-48-01-LS,24,6,3,enable
D1,03-49-01-L1,25,5,1,enable
D1,03-49-01-L2,25,5,2,enable
D1,03-49-01-LS,25,5,3,enable
D1,03-50-01-L1,25,6,1,enable
D1,03-50-01-L2,25,6,2,enable
D1,03-50-01-LS,25,6,3,enable
D1,03-51-01-L1,26,5,1,enable
D1,03-51-01-L2,26,5,2,enable
D1,03-51-01-LS,26,5,3,enable
D1,03-52-01-L1,26,6,1,enable
D1,03-52-01-L2,26,6,2,enable
D1,03-52-01-LS,26,6,3,enable
D1,03-53-01-L1,27,5,1,enable
D1,03-53-01-L2,27,5,2,enable
D1,03-53-01-LS,27,5,3,enable
D1,03-54-01-L1,27,6,1,enable
D1,03-54-01-L2,27,6,2,enable
D1,03-54-01-LS,27,6,3,enable
D1,03-55-01-L1,28,5,1,enable
D1,03-55-01-L2,28,5,2,enable
D1,03-55-01-LS,28,5,3,enable
D1,03-56-01-L1,28,6,1,enable
D1,03-56-01-L2,28,6,2,enable
D1,03-56-01-LS,28,6,3,enable
D17,17-01-01-L1,1,1,1,enable
D17,17-01-01-L2,1,1,2,enable
D17,17-01-01-LS,1,1,3,enable
D17,17-02-01-L1,1,2,1,enable
D17,17-02-01-L2,1,2,2,enable
D17,17-02-01-LS,1,2,3,enable
D17,17-03-01-L1,2,1,1,enable
D17,17-03-01-L2,2,1,2,enable
D17,17-03-01-LS,2,1,3,enable
D17,17-04-01-L1,2,2,1,enable
D17,17-04-01-L2,2,2,2,enable
D17,17-04-01-LS,2,2,3,enable
D17,17-05-01-L1,3,1,1,enable
D17,17-05-01-L2,3,1,2,enable
D17,17-05-01-LS,3,1,3,enable
D17,17-06-01-L1,3,2,1,enable
D17,17-06-01-L2,3,2,2,enable
D17,17-06-01-LS,3,2,3,enable
D17,17-07-01-L1,4,1,1,enable
D17,17-07-01-L2,4,1,2,enable
D17,17-07-01-LS,4,1,3,enable
D17,17-08-01-L1,4,2,1,enable
D17,17-08-01-L2,4,2,2,enable
D17,17-08-01-LS,4,2,3,enable
D17,17-09-01-L1,5,1,1,enable
D17,17-09-01-L2,5,1,2,enable
D17,17-09-01-LS,5,1,3,enable
D17,17-10-01-L1,5,2,1,enable
D17,17-10-01-L2,5,2,2,enable
D17,17-10-01-LS,5,2,3,enable
D17,17-11-01-L1,6,1,1,enable
D17,17-11-01-L2,6,1,2,enable
D17,17-11-01-LS,6,1,3,enable
D17,17-12-01-L1,6,2,1,enable
D17,17-12-01-L2,6,2,2,enable
D17,17-12-01-LS,6,2,3,enable
D17,17-13-01-L1,7,1,1,enable
D17,17-13-01-L2,7,1,2,enable
D17,17-13-01-LS,7,1,3,enable
D17,17-14-01-L1,7,2,1,enable
D17,17-14-01-L2,7,2,2,enable
D17,17-14-01-LS,7,2,3,enable
D17,17-15-01-L1,8,1,1,enable
D17,17-15-01-L2,8,1,2,enable
D17,17-15-01-LS,8,1,3,enable
D17,17-16-01-L1,8,2,1,enable
D17,17-16-01-L2,8,2,2,enable
D17,17-16-01-LS,8,2,3,enable
D17,17-17-01-L1,9,1,1,enable
D17,17-17-01-L2,9,1,2,enable
D17,17-17-01-LS,9,1,3,enable
D17,17-18-01-L1,9,2,1,enable
D17,17-18-01-L2,9,2,2,enable
D17,17-18-01-LS,9,2,3,enable
D17,17-19-01-L1,10,1,1,enable
D17,17-19-01-L2,10,1,2,enable
D17,17-19-01-LS,10,1,3,enable
D17,17-20-01-L1,10,2,1,enable
D17,17-20-01-L2,10,2,2,enable
D17,17-20-01-LS,10,2,3,enable
D17,17-21-01-L1,11,1,1,enable
D17,17-21-01-L2,11,1,2,enable
D17,17-21-01-LS,11,1,3,enable
D17,17-22-01-L1,11,2,1,enable
D17,17-22-01-L2,11,2,2,enable
D17,17-22-01-LS,11,2,3,enable
D17,17-23-01-L1,12,1,1,enable
D17,17-23-01-L2,12,1,2,enable
D17,17-23-01-LS,12,1,3,enable
D17,17-24-01-L1,12,2,1,enable
D17,17-24-01-L2,12,2,2,enable
D17,17-24-01-LS,12,2,3,enable
D17,17-25-01-L1,13,1,1,enable
D17,17-25-01-L2,13,1,2,enable
D17,17-25-01-LS,13,1,3,enable
D17,17-26-01-L1,13,2,1,enable
D17,17-26-01-L2,13,2,2,enable
D17,17-26-01-LS,13,2,3,enable
D17,17-27-01-L1,14,1,1,enable
D17,17-27-01-L2,14,1,2,enable
D17,17-27-01-LS,14,1,3,enable
D17,17-28-01-L1,14,2,1,enable
D17,17-28-01-L2,14,2,2,enable
D17,17-28-01-LS,14,2,3,enable
D17,17-29-01-L1,15,1,1,enable
D17,17-29-01-L2,15,1,2,enable
D17,17-29-01-LS,15,1,3,enable
D17,17-30-01-L1,15,2,1,enable
D17,17-30-01-L2,15,2,2,enable
D17,17-30-01-LS,15,2,3,enable
D17,17-31-01-L1,16,1,1,enable
D17,17-31-01-L2,16,1,2,enable
D17,17-31-01-LS,16,1,3,enable
D17,17-32-01-L1,16,2,1,enable
D17,17-32-01-L2,16,2,2,enable
D17,17-32-01-LS,16,2,3,enable
D17,17-33-01-L1,17,1,1,enable
D17,17-33-01-L2,17,1,2,enable
D17,17-33-01-LS,17,1,3,enable
D17,17-34-01-L1,17,2,1,enable
D17,17-34-01-L2,17,2,2,enable
D17,17-34-01-LS,17,2,3,enable
D17,17-35-01-L1,18,1,1,enable
D17,17-35-01-L2,18,1,2,enable
D17,17-35-01-LS,18,1,3,enable
D17,17-36-01-L1,18,2,1,enable
D17,17-36-01-L2,18,2,2,enable
D17,17-36-01-LS,18,2,3,enable
D17,17-37-01-L1,19,1,1,enable
D17,17-37-01-L2,19,1,2,enable
D17,17-37-01-LS,19,1,3,enable
D17,17-38-01-L1,19,2,1,enable
D17,17-38-01-L2,19,2,2,enable
D17,17-38-01-LS,19,2,3,enable
D17,17-39-01-L1,20,1,1,enable
D17,17-39-01-L2,20,1,2,enable
D17,17-39-01-LS,20,1,3,enable
D17,17-40-01-L1,20,2,1,enable
D17,17-40-01-L2,20,2,2,enable
D17,17-40-01-LS,20,2,3,enable
D17,17-41-01-L1,21,1,1,enable
D17,17-41-01-L2,21,1,2,enable
D17,17-41-01-LS,21,1,3,enable
D17,17-42-01-L1,21,2,1,enable
D17,17-42-01-L2,21,2,2,enable
D17,17-42-01-LS,21,2,3,enable
D17,17-43-01-L1,22,1,1,enable
D17,17-43-01-L2,22,1,2,enable
D17,17-43-01-LS,22,1,3,enable
D17,17-44-01-L1,22,2,1,enable
D17,17-44-01-L2,22,2,2,enable
D17,17-44-01-LS,22,2,3,enable
D17,17-45-01-L1,23,1,1,enable
D17,17-45-01-L2,23,1,2,enable
D17,17-45-01-LS,23,1,3,enable
D17,17-46-01-L1,23,2,1,enable
D17,17-46-01-L2,23,2,2,enable
D17,17-46-01-LS,23,2,3,enable
D17,18-04-01-L1,2,4,1,enable
D17,18-04-01-L2,2,4,2,enable
D17,18-04-01-LS,2,4,3,enable
D17,18-06-01-L1,3,4,1,enable
D17,18-06-01-L2,3,4,2,enable
D17,18-06-01-LS,3,4,3,enable
D17,18-08-01-L1,4,4,1,enable
D17,18-08-01-L2,4,4,2,enable
D17,18-08-01-LS,4,4,3,enable
D17,18-10-01-L1,5,4,1,enable
D17,18-10-01-L2,5,4,2,enable
D17,18-10-01-LS,5,4,3,enable
D17,18-12-01-L1,6,4,1,enable
D17,18-12-01-L2,6,4,2,enable
D17,18-12-01-LS,6,4,3,enable
D17,18-13-01-L1,7,3,1,enable
D17,18-13-01-L2,7,3,2,enable
D17,18-14-01-L1,7,4,1,enable
D17,18-14-01-L2,7,4,2,enable
D17,18-14-01-LS,7,4,3,enable
D17,18-15-01-L1,8,3,1,enable
D17,18-15-01-L2,8,3,2,enable
D17,18-16-01-L1,8,4,1,enable
D17,18-16-01-L2,8,4,2,enable
D17,18-16-01-LS,8,4,3,enable
D17,18-17-01-L1,9,3,1,enable
D17,18-17-01-L2,9,3,2,enable
D17,18-18-01-L1,9,4,1,enable
D17,18-18-01-L2,9,4,2,enable
D17,18-18-01-LS,9,4,3,enable
D17,18-19-01-L1,10,3,1,enable
D17,18-19-01-L2,10,3,2,enable
D17,18-20-01-L1,10,4,1,enable
D17,18-20-01-L2,10,4,2,enable
D17,18-20-01-LS,10,4,3,enable
D17,18-21-01-L1,11,3,1,enable
D17,18-21-01-L2,11,3,2,enable
D17,18-22-01-L1,11,4,1,enable
D17,18-22-01-L2,11,4,2,enable
D17,18-22-01-LS,11,4,3,enable
D17,18-23-01-L1,12,3,1,enable
D17,18-23-01-L2,12,3,2,enable
D17,18-24-01-L1,12,4,1,enable
D17,18-24-01-L2,12,4,2,enable
D17,18-24-01-LS,12,4,3,enable
D17,18-25-01-L1,13,3,1,enable
D17,18-25-01-L2,13,3,2,enable
D17,18-26-01-L1,13,4,1,enable
D17,18-26-01-L2,13,4,2,enable
D17,18-26-01-LS,13,4,3,enable
D17,18-27-01-L1,14,3,1,enable
D17,18-27-01-L2,14,3,2,enable
D17,18-28-01-L1,14,4,1,enable
D17,18-28-01-L2,14,4,2,enable
D17,18-28-01-LS,14,4,3,enable
D17,18-29-01-L1,15,3,1,enable
D17,18-29-01-L2,15,3,2,enable
D17,18-30-01-L1,15,4,1,enable
D17,18-30-01-L2,15,4,2,enable
D17,18-30-01-LS,15,4,3,enable
D17,18-31-01-L1,16,3,1,enable
D17,18-31-01-L2,16,3,2,enable
D17,18-32-01-L1,16,4,1,enable
D17,18-32-01-L2,16,4,2,enable
D17,18-32-01-LS,16,4,3,enable
D17,18-33-01-L1,17,3,1,enable
D17,18-33-01-L2,17,3,2,enable
D17,18-34-01-L1,17,4,1,enable
D17,18-34-01-L2,17,4,2,enable
D17,18-34-01-LS,17,4,3,enable
D17,18-35-01-L1,18,3,1,enable
D17,18-35-01-L2,18,3,2,enable
D17,18-36-01-L1,18,4,1,enable
D17,18-36-01-L2,18,4,2,enable
D17,18-36-01-LS,18,4,3,enable
D17,18-37-01-L1,19,3,1,enable
D17,18-37-01-L2,19,3,2,enable
D17,18-38-01-L1,19,4,1,enable
D17,18-38-01-L2,19,4,2,enable
D17,18-38-01-LS,19,4,3,enable
D17,18-39-01-L1,20,3,1,enable
D17,18-39-01-L2,20,3,2,enable
D17,18-39-01-LS,20,3,3,enable
D17,18-40-01-L1,20,4,1,enable
D17,18-40-01-L2,20,4,2,enable
D17,18-40-01-LS,20,4,3,enable
D17,18-41-01-L1,21,3,1,enable
D17,18-41-01-LS,21,3,2,enable
D17,18-42-01-L1,21,4,1,enable
D17,18-42-01-L2,21,4,2,enable
D17,18-42-01-LS,21,4,3,enable
D17,18-43-01-L1,22,3,1,enable
D17,18-43-01-LS,22,3,2,enable
D17,18-44-01-L1,22,4,1,enable
D17,18-44-01-L2,22,4,2,enable
D17,18-44-01-LS,22,4,3,enable
D17,18-45-01-L1,23,3,1,enable
D17,18-46-01-L1,23,4,1,enable
D17,18-46-01-L2,23,4,2,enable
D17,18-46-01-LS,23,4,3,enable
D17,19-01-01-L1,1,5,1,enable
D17,19-01-01-L2,1,5,2,enable
D17,19-01-01-LS,1,5,3,enable
D17,19-01-03-L2,1,5,4,enable
D17,19-01-04-L2,1,5,5,enable
D17,19-02-01-L1,1,6,1,enable
D17,19-02-01-L2,1,6,2,enable
D17,19-02-01-LS,1,6,3,enable
D17,19-02-03-L2,1,6,4,enable
D17,19-02-04-L2,1,6,5,enable
D17,19-03-01-L1,2,5,1,enable
D17,19-03-01-L2,2,5,2,enable
D17,19-03-01-LS,2,5,3,enable
D17,19-03-03-L2,2,5,4,enable
D17,19-03-04-L2,2,5,5,enable
D17,19-04-01-L1,2,6,1,enable
D17,19-04-01-L2,2,6,2,enable
D17,19-04-01-LS,2,6,3,enable
D17,19-04-03-L2,2,6,4,enable
D17,19-04-04-L2,2,6,5,enable
D17,19-05-01-L1,3,5,1,enable
D17,19-05-01-L2,3,5,2,enable
D17,19-05-01-LS,3,5,3,enable
D17,19-05-03-L2,3,5,4,enable
D17,19-05-04-L2,3,5,5,enable
D17,19-06-01-L1,3,6,1,enable
D17,19-06-01-L2,3,6,2,enable
D17,19-06-01-LS,3,6,3,enable
D17,19-06-03-L2,3,6,4,enable
D17,19-06-04-L2,3,6,5,enable
D17,19-07-01-L1,4,5,1,enable
D17,19-07-01-L2,4,5,2,enable
D17,19-07-01-LS,4,5,3,enable
D17,19-07-03-L2,4,5,4,enable
D17,19-07-04-L2,4,5,5,enable
D17,19-08-01-L1,4,6,1,enable
D17,19-08-01-L2,4,6,2,enable
D17,19-08-01-LS,4,6,3,enable
D17,19-08-03-L2,4,6,4,enable
D17,19-08-04-L2,4,6,5,enable
D17,19-09-01-L1,5,5,1,enable
D17,19-09-01-L2,5,5,2,enable
D17,19-09-01-LS,5,5,3,enable
D17,19-09-03-L2,5,5,4,enable
D17,19-09-04-L2,5,5,5,enable
D17,19-10-01-L1,5,6,1,enable
D17,19-10-01-L2,5,6,2,enable
D17,19-10-01-LS,5,6,3,enable
D17,19-10-03-L2,5,6,4,enable
D17,19-10-04-L2,5,6,5,enable
D17,19-11-01-L1,6,5,1,enable
D17,19-11-01-L2,6,5,2,enable
D17,19-11-01-LS,6,5,3,enable
D17,19-11-03-L2,6,5,4,enable
D17,19-11-04-L2,6,5,5,enable
D17,19-12-01-L1,6,6,1,enable
D17,19-12-01-L2,6,6,2,enable
D17,19-12-01-LS,6,6,3,enable
D17,19-12-03-L2,6,6,4,enable
D17,19-12-04-L2,6,6,5,enable
D17,19-13-01-L1,7,5,1,enable
D17,19-13-01-L2,7,5,2,enable
D17,19-13-01-LS,7,5,3,enable
D17,19-13-03-L2,7,5,4,enable
D17,19-13-04-L2,7,5,5,enable
D17,19-14-01-L1,7,6,1,enable
D17,19-14-01-L2,7,6,2,enable
D17,19-14-01-LS,7,6,3,enable
D17,19-14-03-L2,7,6,4,enable
D17,19-14-04-L2,7,6,5,enable
D17,19-15-01-L1,8,5,1,enable
D17,19-15-01-L2,8,5,2,enable
D17,19-15-01-LS,8,5,3,enable
D17,19-15-03-L2,8,5,4,enable
D17,19-15-04-L2,8,5,5,enable
D17,19-16-01-L1,8,6,1,enable
D17,19-16-01-L2,8,6,2,enable
D17,19-16-01-LS,8,6,3,enable
D17,19-16-03-L2,8,6,4,enable
D17,19-16-04-L2,8,6,5,enable
D17,19-17-01-L1,9,5,1,enable
D17,19-17-01-L2,9,5,2,enable
D17,19-17-01-LS,9,5,3,enable
D17,19-17-03-L2,9,5,4,enable
D17,19-17-04-L2,9,5,5,enable
D17,19-18-01-L1,9,6,1,enable
D17,19-18-01-L2,9,6,2,enable
D17,19-18-01-LS,9,6,3,enable
D17,19-18-03-L2,9,6,4,enable
D17,19-18-04-L2,9,6,5,enable
D17,19-19-01-L1,10,5,1,enable
D17,19-19-01-L2,10,5,2,enable
D17,19-19-01-LS,10,5,3,enable
D17,19-19-03-L2,10,5,4,enable
D17,19-19-04-L2,10,5,5,enable
D17,19-20-01-L1,10,6,1,enable
D17,19-20-01-L2,10,6,2,enable
D17,19-20-01-LS,10,6,3,enable
D17,19-20-03-L2,10,6,4,enable
D17,19-20-04-L2,10,6,5,enable
D17,19-21-01-L1,11,5,1,enable
D17,19-21-01-L2,11,5,2,enable
D17,19-21-01-LS,11,5,3,enable
D17,19-21-03-L2,11,5,4,enable
D17,19-21-04-L2,11,5,5,enable
D17,19-22-01-L1,11,6,1,enable
D17,19-22-01-L2,11,6,2,enable
D17,19-22-01-LS,11,6,3,enable
D17,19-22-03-L2,11,6,4,enable
D17,19-22-04-L2,11,6,5,enable
D17,19-23-01-L1,12,5,1,enable
D17,19-23-01-L2,12,5,2,enable
D17,19-23-01-LS,12,5,3,enable
D17,19-23-03-L2,12,5,4,enable
D17,19-23-04-L2,12,5,5,enable
D17,19-24-01-L1,12,6,1,enable
D17,19-24-01-L2,12,6,2,enable
D17,19-24-01-LS,12,6,3,enable
D17,19-24-03-L2,12,6,4,enable
D17,19-24-04-L2,12,6,5,enable
D17,19-25-01-L1,13,5,1,enable
D17,19-25-01-L2,13,5,2,enable
D17,19-25-01-LS,13,5,3,enable
D17,19-25-03-L2,13,5,4,enable
D17,19-25-04-L2,13,5,5,enable
D17,19-26-01-L1,13,6,1,enable
D17,19-26-01-L2,13,6,2,enable
D17,19-26-01-LS,13,6,3,enable
D17,19-26-03-L2,13,6,4,enable
D17,19-26-04-L2,13,6,5,enable
D17,19-27-01-L1,14,5,1,enable
D17,19-27-01-L2,14,5,2,enable
D17,19-27-01-LS,14,5,3,enable
D17,19-27-03-L2,14,5,4,enable
D17,19-27-04-L2,14,5,5,enable
D17,19-28-01-L1,14,6,1,enable
D17,19-28-01-L2,14,6,2,enable
D17,19-28-01-LS,14,6,3,enable
D17,19-28-03-L2,14,6,4,enable
D17,19-28-04-L2,14,6,5,enable
D17,19-29-01-L1,15,5,1,enable
D17,19-29-01-L2,15,5,2,enable
D17,19-29-01-LS,15,5,3,enable
D17,19-29-03-L2,15,5,4,enable
D17,19-29-04-L2,15,5,5,enable
D17,19-30-01-L1,15,6,1,enable
D17,19-30-01-L2,15,6,2,enable
D17,19-30-01-LS,15,6,3,enable
D17,19-30-03-L2,15,6,4,enable
D17,19-30-04-L2,15,6,5,enable
D17,19-31-01-L1,16,5,1,enable
D17,19-31-01-L2,16,5,2,enable
D17,19-31-01-LS,16,5,3,enable
D17,19-31-03-L2,16,5,4,enable
D17,19-31-04-L2,16,5,5,enable
D17,19-32-01-L1,16,6,1,enable
D17,19-32-01-L2,16,6,2,enable
D17,19-32-01-LS,16,6,3,enable
D17,19-32-03-L2,16,6,4,enable
D17,19-32-04-L2,16,6,5,enable
D17,20-01-01-L1,1,7,1,enable
D17,20-02-01-L1,1,8,1,enable
D17,20-02-01-LS,1,8,2,enable
D17,20-03-01-L1,2,7,1,enable
D17,20-04-01-L1,2,8,1,enable
D17,20-04-01-LS,2,8,2,enable
D17,20-05-01-L1,3,7,1,enable
D17,20-06-01-L1,3,8,1,enable
D17,20-06-01-LS,3,8,2,enable
D17,20-07-01-L1,4,7,1,enable
D17,20-08-01-L1,4,8,1,enable
D17,20-08-01-LS,4,8,2,enable
D17,20-09-01-L1,5,7,1,enable
D17,20-10-01-L1,5,8,1,enable
D17,20-10-01-LS,5,8,2,enable
D17,20-11-01-L1,6,7,1,enable
D17,20-12-01-L1,6,8,1,enable
D17,20-12-01-LS,6,8,2,enable
D17,20-13-01-L1,7,7,1,enable
D17,20-14-01-L1,7,8,1,enable
D17,20-14-01-LS,7,8,2,enable
D17,20-15-01-L1,8,7,1,enable
D17,20-16-01-L1,8,8,1,enable
D17,20-16-01-LS,8,8,2,enable
D17,20-17-01-L1,9,7,1,enable
D17,20-18-01-L1,9,8,1,enable
D17,20-18-01-LS,9,8,2,enable
D17,20-19-01-L1,10,7,1,enable
D17,20-20-01-L1,10,8,1,enable
D17,20-20-01-LS,10,8,2,enable
D17,20-21-01-L1,11,7,1,enable
D17,20-22-01-L1,11,8,1,enable
D17,20-22-01-LS,11,8,2,enable
D17,20-23-01-L1,12,7,1,enable
D17,20-24-01-L1,12,8,1,enable
D17,20-24-01-LS,12,8,2,enable
D17,20-25-01-L1,13,7,1,enable
D17,20-26-01-L1,13,8,1,enable
D17,20-26-01-LS,13,8,2,enable
D17,20-27-01-L1,14,7,1,enable
D17,20-28-01-L1,14,8,1,enable
D17,20-28-01-LS,14,8,2,enable
D17,20-29-01-L1,15,7,1,enable
D17,20-30-01-L1,15,8,1,enable
D17,20-30-01-LS,15,8,2,enable
D17,20-31-01-L1,16,7,1,enable
D17,20-32-01-L1,16,8,1,enable
D17,20-32-01-LS,16,8,2,enable
D17,20-33-01-L1,17,7,1,enable
D13,13-01-01-L1,1,1,1,enable
D13,13-01-01-LS,1,1,2,enable
D13,13-02-01-L1,1,2,1,enable
D13,13-03-01-L1,2,1,1,enable
D13,13-03-01-LS,2,1,2,enable
D13,13-04-01-L1,2,2,1,enable
D13,13-05-01-L1,3,1,1,enable
D13,13-05-01-LS,3,1,2,enable
D13,13-06-01-L1,3,2,1,enable
D13,13-07-01-L1,4,1,1,enable
D13,13-07-01-LS,4,1,2,enable
D13,13-08-01-L1,4,2,1,enable
D13,13-09-01-L1,5,1,1,enable
D13,13-09-01-LS,5,1,2,enable
D13,13-10-01-L1,5,2,1,enable
D13,13-11-01-L1,6,1,1,enable
D13,13-11-01-LS,6,1,2,enable
D13,13-12-01-L1,6,2,1,enable
D13,13-13-01-L1,7,1,1,enable
D13,13-13-01-LS,7,1,2,enable
D13,13-14-01-L1,7,2,1,enable
D13,13-15-01-L1,8,1,1,enable
D13,13-15-01-LS,8,1,2,enable
D13,13-16-01-L1,8,2,1,enable
D13,13-17-01-L1,9,1,1,enable
D13,13-17-01-LS,9,1,2,enable
D13,13-18-01-L1,9,2,1,enable
D13,13-19-01-L1,10,1,1,enable
D13,13-19-01-LS,10,1,2,enable
D13,13-20-01-L1,10,2,1,enable
D13,13-21-01-L1,11,1,1,enable
D13,13-21-01-LS,11,1,2,enable
D13,13-22-01-L1,11,2,1,enable
D13,13-23-01-L1,12,1,1,enable
D13,13-23-01-LS,12,1,2,enable
D13,13-24-01-L1,12,2,1,enable
D13,13-25-01-L1,13,1,1,enable
D13,13-25-01-LS,13,1,2,enable
D13,13-26-01-L1,13,2,1,enable
D13,13-27-01-L1,14,1,1,enable
D13,13-27-01-LS,14,1,2,enable
D13,13-28-01-L1,14,2,1,enable
D13,13-29-01-L1,15,1,1,enable
D13,13-29-01-LS,15,1,2,enable
D13,13-30-01-L1,15,2,1,enable
D13,13-31-01-L1,16,1,1,enable
D13,13-31-01-LS,16,1,2,enable
D13,13-32-01-L1,16,2,1,enable
D13,13-33-01-L1,17,1,1,enable
D13,13-33-01-LS,17,1,2,enable
D13,13-34-01-L1,17,2,1,enable
D13,13-35-01-L1,18,1,1,enable
D13,13-35-01-LS,18,1,2,enable
D13,13-36-01-L1,18,2,1,enable
D13,13-37-01-L1,19,1,1,enable
D13,13-37-01-LS,19,1,2,enable
D13,13-38-01-L1,19,2,1,enable
D13,13-39-01-L1,20,1,1,enable
D13,13-39-01-LS,20,1,2,enable
D13,13-40-01-L1,20,2,1,enable
D13,13-41-01-L1,21,1,1,enable
D13,13-41-01-LS,21,1,2,enable
D13,13-42-01-L1,21,2,1,enable
D13,14-01-01-L1,1,3,1,enable
D13,14-01-01-L2,1,3,2,enable
D13,14-01-01-LS,1,3,3,enable
D13,14-02-01-L1,1,4,1,enable
D13,14-02-01-L2,1,4,2,enable
D13,14-02-01-LS,1,4,3,enable
D13,14-03-01-L1,2,3,1,enable
D13,14-03-01-L2,2,3,2,enable
D13,14-03-01-LS,2,3,3,enable
D13,14-04-01-L1,2,4,1,enable
D13,14-04-01-L2,2,4,2,enable
D13,14-04-01-LS,2,4,3,enable
D13,14-05-01-L1,3,3,1,enable
D13,14-05-01-L2,3,3,2,enable
D13,14-05-01-LS,3,3,3,enable
D13,14-06-01-L1,3,4,1,enable
D13,14-06-01-L2,3,4,2,enable
D13,14-06-01-LS,3,4,3,enable
D13,14-07-01-L1,4,3,1,enable
D13,14-07-01-L2,4,3,2,enable
D13,14-07-01-LS,4,3,3,enable
D13,14-08-01-L1,4,4,1,enable
D13,14-08-01-L2,4,4,2,enable
D13,14-08-01-LS,4,4,3,enable
D13,14-09-01-L1,5,3,1,enable
D13,14-09-01-L2,5,3,2,enable
D13,14-09-01-LS,5,3,3,enable
D13,14-10-01-L1,5,4,1,enable
D13,14-10-01-L2,5,4,2,enable
D13,14-10-01-LS,5,4,3,enable
D13,14-11-01-L1,6,3,1,enable
D13,14-11-01-L2,6,3,2,enable
D13,14-11-01-LS,6,3,3,enable
D13,14-12-01-L1,6,4,1,enable
D13,14-12-01-L2,6,4,2,enable
D13,14-12-01-LS,6,4,3,enable
D13,14-13-01-L1,7,3,1,enable
D13,14-13-01-L2,7,3,2,enable
D13,14-13-01-LS,7,3,3,enable
D13,14-14-01-L1,7,4,1,enable
D13,14-14-01-L2,7,4,2,enable
D13,14-14-01-LS,7,4,3,enable
D13,14-15-01-L1,8,3,1,enable
D13,14-15-01-L2,8,3,2,enable
D13,14-15-01-LS,8,3,3,enable
D13,14-16-01-L1,8,4,1,enable
D13,14-16-01-L2,8,4,2,enable
D13,14-16-01-LS,8,4,3,enable
D13,14-17-01-L1,9,3,1,enable
D13,14-17-01-L2,9,3,2,enable
D13,14-17-01-LS,9,3,3,enable
D13,14-18-01-L1,9,4,1,enable
D13,14-18-01-L2,9,4,2,enable
D13,14-18-01-LS,9,4,3,enable
D13,14-19-01-L1,10,3,1,enable
D13,14-19-01-L2,10,3,2,enable
D13,14-19-01-LS,10,3,3,enable
D13,14-20-01-L1,10,4,1,enable
D13,14-20-01-L2,10,4,2,enable
D13,14-20-01-LS,10,4,3,enable
D13,14-21-01-L1,11,3,1,enable
D13,14-21-01-L2,11,3,2,enable
D13,14-21-01-LS,11,3,3,enable
D13,14-22-01-L1,11,4,1,enable
D13,14-22-01-L2,11,4,2,enable
D13,14-22-01-LS,11,4,3,enable
D13,14-23-01-L1,12,3,1,enable
D13,14-23-01-L2,12,3,2,enable
D13,14-23-01-LS,12,3,3,enable
D13,14-24-01-L1,12,4,1,enable
D13,14-24-01-L2,12,4,2,enable
D13,14-24-01-LS,12,4,3,enable
D13,14-25-01-L1,13,3,1,enable
D13,14-25-01-L2,13,3,2,enable
D13,14-25-01-LS,13,3,3,enable
D13,14-26-01-L1,13,4,1,enable
D13,14-26-01-L2,13,4,2,enable
D13,14-26-01-LS,13,4,3,enable
D13,14-27-01-L1,14,3,1,enable
D13,14-27-01-L2,14,3,2,enable
D13,14-27-01-LS,14,3,3,enable
D13,14-28-01-L1,14,4,1,enable
D13,14-28-01-L2,14,4,2,enable
D13,14-28-01-LS,14,4,3,enable
D13,14-29-01-L1,15,3,1,enable
D13,14-29-01-L2,15,3,2,enable
D13,14-29-01-LS,15,3,3,enable
D13,14-30-01-L1,15,4,1,enable
D13,14-30-01-L2,15,4,2,enable
D13,14-30-01-LS,15,4,3,enable
D13,14-31-01-L1,16,3,1,enable
D13,14-31-01-L2,16,3,2,enable
D13,14-31-01-LS,16,3,3,enable
D13,14-32-01-L1,16,4,1,enable
D13,14-32-01-L2,16,4,2,enable
D13,14-32-01-LS,16,4,3,enable
D13,14-33-01-L1,17,3,1,enable
D13,14-33-01-L2,17,3,2,enable
D13,14-33-01-LS,17,3,3,enable
D13,14-34-01-L1,17,4,1,enable
D13,14-34-01-L2,17,4,2,enable
D13,14-34-01-LS,17,4,3,enable
D13,14-35-01-L1,18,3,1,enable
D13,14-35-01-L2,18,3,2,enable
D13,14-35-01-LS,18,3,3,enable
D13,14-36-01-L1,18,4,1,enable
D13,14-36-01-L2,18,4,2,enable
D13,14-36-01-LS,18,4,3,enable
D13,14-37-01-L1,19,3,1,enable
D13,14-37-01-L2,19,3,2,enable
D13,14-37-01-LS,19,3,3,enable
D13,14-38-01-L1,19,4,1,enable
D13,14-38-01-L2,19,4,2,enable
D13,14-38-01-LS,19,4,3,enable
D13,14-39-01-L1,20,3,1,enable
D13,14-39-01-L2,20,3,2,enable
D13,14-39-01-LS,20,3,3,enable
D13,14-40-01-L1,20,4,1,enable
D13,14-40-01-L2,20,4,2,enable
D13,14-40-01-LS,20,4,3,enable
D13,14-41-01-L1,21,3,1,enable
D13,14-41-01-L2,21,3,2,enable
D13,14-41-01-LS,21,3,3,enable
D13,14-42-01-L1,21,4,1,enable
D13,14-42-01-L2,21,4,2,enable
D13,14-42-01-LS,21,4,3,enable
D13,14-43-01-L1,22,3,1,enable
D13,14-43-01-L2,22,3,2,enable
D13,14-43-01-LS,22,3,3,enable
D13,14-44-01-L1,22,4,1,enable
D13,14-44-01-L2,22,4,2,enable
D13,14-44-01-LS,22,4,3,enable
D13,14-45-01-L1,23,3,1,enable
D13,14-45-01-L2,23,3,2,enable
D13,14-45-01-LS,23,3,3,enable
D13,15-01-01-L1,1,5,1,enable
D13,15-01-01-LS,1,5,2,enable
D13,15-02-01-L1,1,6,1,enable
D13,15-02-01-LS,1,6,2,enable
D13,15-03-01-L1,2,5,1,enable
D13,15-03-01-LS,2,5,2,enable
D13,15-04-01-L1,2,6,1,enable
D13,15-04-01-LS,2,6,2,enable
D13,15-05-01-L1,3,5,1,enable
D13,15-05-01-LS,3,5,2,enable
D13,15-06-01-L1,3,6,1,enable
D13,15-06-01-LS,3,6,2,enable
D13,15-07-01-L1,4,5,1,enable
D13,15-07-01-LS,4,5,2,enable
D13,15-08-01-L1,4,6,1,enable
D13,15-08-01-LS,4,6,2,enable
D13,15-09-01-L1,5,5,1,enable
D13,15-09-01-LS,5,5,2,enable
D13,15-10-01-L1,5,6,1,enable
D13,15-10-01-LS,5,6,2,enable
D13,15-11-01-L1,6,5,1,enable
D13,15-11-01-LS,6,5,2,enable
D13,15-12-01-L1,6,6,1,enable
D13,15-12-01-LS,6,6,2,enable
D13,15-13-01-L1,7,5,1,enable
D13,15-13-01-LS,7,5,2,enable
D13,15-14-01-L1,7,6,1,enable
D13,15-14-01-LS,7,6,2,enable
D13,15-15-01-L1,8,5,1,enable
D13,15-15-01-LS,8,5,2,enable
D13,15-16-01-L1,8,6,1,enable
D13,15-16-01-LS,8,6,2,enable
D13,15-17-01-L1,9,5,1,enable
D13,15-17-01-LS,9,5,2,enable
D13,15-18-01-L1,9,6,1,enable
D13,15-18-01-LS,9,6,2,enable
D13,15-19-01-L1,10,5,1,enable
D13,15-19-01-LS,10,5,2,enable
D13,15-20-01-L1,10,6,1,enable
D13,15-20-01-LS,10,6,2,enable
D13,15-21-01-L1,11,5,1,enable
D13,15-21-01-LS,11,5,2,enable
D13,15-22-01-L1,11,6,1,enable
D13,15-22-01-LS,11,6,2,enable
D13,15-23-01-L1,12,5,1,enable
D13,15-23-01-LS,12,5,2,enable
D13,15-24-01-L1,12,6,1,enable
D13,15-24-01-LS,12,6,2,enable
D13,15-25-01-L1,13,5,1,enable
D13,15-25-01-LS,13,5,2,enable
D13,15-26-01-L1,13,6,1,enable
D13,15-26-01-LS,13,6,2,enable
D13,15-27-01-L1,14,5,1,enable
D13,15-27-01-LS,14,5,2,enable
D13,15-28-01-L1,14,6,1,enable
D13,15-28-01-LS,14,6,2,enable
D13,15-29-01-L1,15,5,1,enable
D13,15-29-01-LS,15,5,2,enable
D13,15-30-01-L1,15,6,1,enable
D13,15-30-01-LS,15,6,2,enable
D13,15-31-01-L1,16,5,1,enable
D13,15-31-01-LS,16,5,2,enable
D13,15-32-01-L1,16,6,1,enable
D13,15-32-01-LS,16,6,2,enable
D13,15-33-01-L1,17,5,1,enable
D13,15-33-01-LS,17,5,2,enable
D13,15-34-01-L1,17,6,1,enable
D13,15-34-01-LS,17,6,2,enable
D13,15-35-01-L1,18,5,1,enable
D13,15-35-01-LS,18,5,2,enable
D13,15-36-01-L1,18,6,1,enable
D13,15-36-01-LS,18,6,2,enable
D13,15-37-01-L1,19,5,1,enable
D13,15-37-01-LS,19,5,2,enable
D13,15-38-01-L1,19,6,1,enable
D13,15-38-01-LS,19,6,2,enable
D13,15-39-01-L1,20,5,1,enable
D13,15-39-01-LS,20,5,2,enable
D13,15-40-01-L1,20,6,1,enable
D13,15-40-01-LS,20,6,2,enable
D13,15-41-01-L1,21,5,1,enable
D13,15-41-01-LS,21,5,2,enable
D13,15-42-01-L1,21,6,1,enable
D13,15-42-01-LS,21,6,2,enable
D13,15-43-01-L1,22,5,1,enable
D13,15-43-01-LS,22,5,2,enable
D13,15-44-01-L1,22,6,1,enable
D13,15-44-01-LS,22,6,2,enable
D13,15-45-01-L1,23,5,1,enable
D13,15-45-01-LS,23,5,2,enable
D13,15-46-01-L1,23,6,1,enable
D13,15-46-01-LS,23,6,2,enable
D13,16-01-01-L1,1,7,1,enable
D13,16-01-01-L2,1,7,2,enable
D13,16-01-01-LS,1,7,3,enable
D13,16-02-01-L1,1,8,1,enable
D13,16-02-01-L2,1,8,2,enable
D13,16-02-01-LS,1,8,3,enable
D13,16-03-01-L1,2,7,1,enable
D13,16-03-01-L2,2,7,2,enable
D13,16-03-01-LS,2,7,3,enable
D13,16-04-01-L1,2,8,1,enable
D13,16-04-01-L2,2,8,2,enable
D13,16-04-01-LS,2,8,3,enable
D13,16-05-01-L1,3,7,1,enable
D13,16-05-01-L2,3,7,2,enable
D13,16-05-01-LS,3,7,3,enable
D13,16-06-01-L1,3,8,1,enable
D13,16-06-01-L2,3,8,2,enable
D13,16-06-01-LS,3,8,3,enable
D13,16-07-01-L1,4,7,1,enable
D13,16-07-01-L2,4,7,2,enable
D13,16-07-01-LS,4,7,3,enable
D13,16-08-01-L1,4,8,1,enable
D13,16-08-01-L2,4,8,2,enable
D13,16-08-01-LS,4,8,3,enable
D13,16-09-01-L1,5,7,1,enable
D13,16-09-01-L2,5,7,2,enable
D13,16-09-01-LS,5,7,3,enable
D13,16-10-01-L1,5,8,1,enable
D13,16-10-01-L2,5,8,2,enable
D13,16-10-01-LS,5,8,3,enable
D13,16-11-01-L1,6,7,1,enable
D13,16-11-01-L2,6,7,2,enable
D13,16-11-01-LS,6,7,3,enable
D13,16-12-01-L1,6,8,1,enable
D13,16-12-01-L2,6,8,2,enable
D13,16-12-01-LS,6,8,3,enable
D13,16-13-01-L1,7,7,1,enable
D13,16-13-01-L2,7,7,2,enable
D13,16-13-01-LS,7,7,3,enable
D13,16-14-01-L1,7,8,1,enable
D13,16-14-01-L2,7,8,2,enable
D13,16-14-01-LS,7,8,3,enable
D13,16-15-01-L1,8,7,1,enable
D13,16-15-01-L2,8,7,2,enable
D13,16-15-01-LS,8,7,3,enable
D13,16-16-01-L1,8,8,1,enable
D13,16-16-01-L2,8,8,2,enable
D13,16-16-01-LS,8,8,3,enable
D13,16-17-01-L1,9,7,1,enable
D13,16-17-01-L2,9,7,2,enable
D13,16-17-01-LS,9,7,3,enable
D13,16-18-01-L1,9,8,1,enable
D13,16-18-01-L2,9,8,2,enable
D13,16-18-01-LS,9,8,3,enable
D13,16-19-01-L1,10,7,1,enable
D13,16-19-01-L2,10,7,2,enable
D13,16-19-01-LS,10,7,3,enable
D13,16-20-01-L1,10,8,1,enable
D13,16-20-01-L2,10,8,2,enable
D13,16-20-01-LS,10,8,3,enable
D13,16-21-01-L1,11,7,1,enable
D13,16-21-01-L2,11,7,2,enable
D13,16-21-01-LS,11,7,3,enable
D13,16-22-01-L1,11,8,1,enable
D13,16-22-01-L2,11,8,2,enable
D13,16-22-01-LS,11,8,3,enable
D13,16-23-01-L1,12,7,1,enable
D13,16-23-01-L2,12,7,2,enable
D13,16-23-01-LS,12,7,3,enable
D13,16-24-01-L1,12,8,1,enable
D13,16-24-01-L2,12,8,2,enable
D13,16-24-01-LS,12,8,3,enable
D13,16-25-01-L1,13,7,1,enable
D13,16-25-01-L2,13,7,2,enable
D13,16-25-01-LS,13,7,3,enable
D13,16-26-01-L1,13,8,1,enable
D13,16-26-01-L2,13,8,2,enable
D13,16-26-01-LS,13,8,3,enable
D13,16-27-01-L1,14,7,1,enable
D13,16-27-01-L2,14,7,2,enable
D13,16-27-01-LS,14,7,3,enable
D13,16-28-01-L1,14,8,1,enable
D13,16-28-01-L2,14,8,2,enable
D13,16-28-01-LS,14,8,3,enable
D13,16-29-01-L1,15,7,1,enable
D13,16-29-01-L2,15,7,2,enable
D13,16-29-01-LS,15,7,3,enable
D13,16-30-01-L1,15,8,1,enable
D13,16-30-01-L2,15,8,2,enable
D13,16-30-01-LS,15,8,3,enable
D13,16-31-01-L1,16,7,1,enable
D13,16-31-01-L2,16,7,2,enable
D13,16-31-01-LS,16,7,3,enable
D13,16-32-01-L1,16,8,1,enable
D13,16-32-01-L2,16,8,2,enable
D13,16-32-01-LS,16,8,3,enable
D13,16-33-01-L1,17,7,1,enable
D13,16-33-01-L2,17,7,2,enable
D13,16-33-01-LS,17,7,3,enable
D13,16-34-01-L1,17,8,1,enable
D13,16-34-01-L2,17,8,2,enable
D13,16-34-01-LS,17,8,3,enable
D13,16-35-01-L1,18,7,1,enable
D13,16-35-01-L2,18,7,2,enable
D13,16-35-01-LS,18,7,3,enable
D13,16-36-01-L1,18,8,1,enable
D13,16-36-01-L2,18,8,2,enable
D13,16-36-01-LS,18,8,3,enable
D13,16-37-01-L1,19,7,1,enable
D13,16-37-01-L2,19,7,2,enable
D13,16-37-01-LS,19,7,3,enable
D13,16-38-01-L1,19,8,1,enable
D13,16-38-01-L2,19,8,2,enable
D13,16-38-01-LS,19,8,3,enable
D13,16-39-01-L1,20,7,1,enable
D13,16-39-01-L2,20,7,2,enable
D13,16-39-01-LS,20,7,3,enable
D13,16-40-01-L1,20,8,1,enable
D13,16-40-01-L2,20,8,2,enable
D13,16-40-01-LS,20,8,3,enable
D13,16-41-01-L1,21,7,1,enable
D13,16-41-01-L2,21,7,2,enable
D13,16-41-01-LS,21,7,3,enable
D13,16-42-01-L1,21,8,1,enable
D13,16-42-01-L2,21,8,2,enable
D13,16-42-01-LS,21,8,3,enable
D13,16-43-01-L1,22,7,1,enable
D13,16-43-01-L2,22,7,2,enable
D13,16-43-01-LS,22,7,3,enable
D13,16-44-01-L1,22,8,1,enable
D13,16-44-01-L2,22,8,2,enable
D13,16-44-01-LS,22,8,3,enable
D13,16-45-01-L1,23,7,1,enable
D13,16-45-01-L2,23,7,2,enable
D13,16-45-01-LS,23,7,3,enable
D13,16-46-01-L1,23,8,1,enable
D13,16-46-01-L2,23,8,2,enable
D13,16-46-01-LS,23,8,3,enable
25,25-11-01-L1,6,1,1,enable
25,25-12-01-L1,6,2,1,enable
25,25-12-01-LS,6,2,2,enable
25,25-13-01-L1,7,1,1,enable
25,25-14-01-L1,7,2,1,enable
25,25-14-01-LS,7,2,2,enable
25,25-15-01-L1,8,1,1,enable
25,25-16-01-L1,8,2,1,enable
25,25-16-01-LS,8,2,2,enable
25,25-17-01-L1,9,1,1,enable
25,25-18-01-L1,9,2,1,enable
25,25-18-01-LS,9,2,2,enable
25,25-19-01-L1,10,1,1,enable
25,25-20-01-L1,10,2,1,enable
25,25-20-01-LS,10,2,2,enable
25,25-22-01-L1,11,2,1,enable
25,25-22-01-LS,11,2,2,enable
25,25-24-01-L1,12,2,1,enable
25,25-24-01-LS,12,2,2,enable
25,25-26-01-L1,13,2,1,enable
25,25-26-01-LS,13,2,2,enable
25,25-28-01-L1,14,2,1,enable
25,25-28-01-LS,14,2,2,enable
25,25-30-01-L1,15,2,1,enable
25,25-30-01-LS,15,2,2,enable
25,25-32-01-L1,16,2,1,enable
25,25-32-01-LS,16,2,2,enable
25,25-34-01-L1,17,2,1,enable
25,25-34-01-LS,17,2,2,enable
25,25-36-01-L1,18,2,1,enable
25,25-36-01-LS,18,2,2,enable
25,25-38-01-L1,19,2,1,enable
25,25-38-01-LS,19,2,2,enable
25,25-39-01-L1,20,1,1,enable
25,25-40-01-L1,20,2,1,enable
25,25-40-01-LS,20,2,2,enable
25,25-41-01-L1,21,1,1,enable
25,25-42-01-L1,21,2,1,enable
25,25-42-01-LS,21,2,2,enable
25,25-43-01-L1,22,1,1,enable
25,25-44-01-L1,22,2,1,enable
25,25-44-01-LS,22,2,2,enable
25,25-45-01-L1,23,1,1,enable
25,25-46-01-L1,23,2,1,enable
25,25-46-01-LS,23,2,2,enable
25,25-47-01-L1,24,1,1,enable
25,25-49-01-L1,25,1,1,enable
25,25-51-01-L1,26,1,1,enable
25,25-53-01-L1,27,1,1,enable
25,25-55-01-L1,28,1,1,enable
25,26-11-01-L1,6,3,1,enable
25,26-11-01-LS,6,3,2,enable
25,26-12-01-L1,6,4,1,enable
25,26-12-01-LS,6,4,2,enable
25,26-13-01-L1,7,3,1,enable
25,26-13-01-LS,7,3,2,enable
25,26-14-01-L1,7,4,1,enable
25,26-14-01-LS,7,4,2,enable
25,26-15-01-L1,8,3,1,enable
25,26-15-01-LS,8,3,2,enable
25,26-16-01-L1,8,4,1,enable
25,26-16-01-LS,8,4,2,enable
25,26-17-01-L1,9,3,1,enable
25,26-17-01-LS,9,3,2,enable
25,26-18-01-L1,9,4,1,enable
25,26-18-01-LS,9,4,2,enable
25,26-19-01-L1,10,3,1,enable
25,26-19-01-LS,10,3,2,enable
25,26-20-01-L1,10,4,1,enable
25,26-20-01-LS,10,4,2,enable
25,26-21-01-L1,11,3,1,enable
25,26-21-01-LS,11,3,2,enable
25,26-22-01-L1,11,4,1,enable
25,26-22-01-LS,11,4,2,enable
25,26-23-01-L1,12,3,1,enable
25,26-23-01-LS,12,3,2,enable
25,26-24-01-L1,12,4,1,enable
25,26-24-01-LS,12,4,2,enable
25,26-25-01-L1,13,3,1,enable
25,26-25-01-LS,13,3,2,enable
25,26-26-01-L1,13,4,1,enable
25,26-26-01-LS,13,4,2,enable
25,26-27-01-L1,14,3,1,enable
25,26-27-01-LS,14,3,2,enable
25,26-28-01-L1,14,4,1,enable
25,26-28-01-LS,14,4,2,enable
25,26-29-01-L1,15,3,1,enable
25,26-29-01-LS,15,3,2,enable
25,26-30-01-L1,15,4,1,enable
25,26-30-01-LS,15,4,2,enable
25,26-31-01-L1,16,3,1,enable
25,26-31-01-LS,16,3,2,enable
25,26-32-01-L1,16,4,1,enable
25,26-32-01-LS,16,4,2,enable
25,26-33-01-L1,17,3,1,enable
25,26-33-01-LS,17,3,2,enable
25,26-34-01-L1,17,4,1,enable
25,26-34-01-LS,17,4,2,enable
25,26-35-01-L1,18,3,1,enable
25,26-35-01-LS,18,3,2,enable
25,26-36-01-L1,18,4,1,enable
25,26-36-01-LS,18,4,2,enable
25,26-37-01-L1,19,3,1,enable
25,26-37-01-LS,19,3,2,enable
25,26-38-01-L1,19,4,1,enable
25,26-38-01-LS,19,4,2,enable
25,26-39-01-L1,20,3,1,enable
25,26-39-01-LS,20,3,2,enable
25,26-40-01-L1,20,4,1,enable
25,26-40-01-LS,20,4,2,enable
25,26-41-01-L1,21,3,1,enable
25,26-41-01-LS,21,3,2,enable
25,26-42-01-L1,21,4,1,enable
25,26-42-01-LS,21,4,2,enable
25,26-43-01-L1,22,3,1,enable
25,26-43-01-LS,22,3,2,enable
25,26-44-01-L1,22,4,1,enable
25,26-44-01-LS,22,4,2,enable
25,26-45-01-L1,23,3,1,enable
25,26-45-01-LS,23,3,2,enable
25,26-46-01-L1,23,4,1,enable
25,26-46-01-LS,23,4,2,enable
25,26-47-01-L1,24,3,1,enable
25,26-48-01-L1,24,4,1,enable
25,27-11-01-L1,6,5,1,enable
25,27-11-01-LS,6,5,2,enable
25,27-12-01-L1,6,6,1,enable
25,27-12-01-LS,6,6,2,enable
25,27-13-01-L1,7,5,1,enable
25,27-13-01-LS,7,5,2,enable
25,27-14-01-L1,7,6,1,enable
25,27-14-01-LS,7,6,2,enable
25,27-15-01-L1,8,5,1,enable
25,27-15-01-LS,8,5,2,enable
25,27-16-01-L1,8,6,1,enable
25,27-16-01-LS,8,6,2,enable
25,27-17-01-L1,9,5,1,enable
25,27-17-01-LS,9,5,2,enable
25,27-18-01-L1,9,6,1,enable
25,27-18-01-LS,9,6,2,enable
25,27-19-01-L1,10,5,1,enable
25,27-19-01-LS,10,5,2,enable
25,27-20-01-L1,10,6,1,enable
25,27-20-01-LS,10,6,2,enable
25,27-21-01-L1,11,5,1,enable
25,27-21-01-LS,11,5,2,enable
25,27-22-01-L1,11,6,1,enable
25,27-22-01-LS,11,6,2,enable
25,27-23-01-L1,12,5,1,enable
25,27-23-01-LS,12,5,2,enable
25,27-24-01-L1,12,6,1,enable
25,27-24-01-LS,12,6,2,enable
25,27-25-01-L1,13,5,1,enable
25,27-25-01-LS,13,5,2,enable
25,27-26-01-L1,13,6,1,enable
25,27-26-01-LS,13,6,2,enable
25,27-27-01-L1,14,5,1,enable
25,27-27-01-LS,14,5,2,enable
25,27-28-01-L1,14,6,1,enable
25,27-28-01-LS,14,6,2,enable
25,27-29-01-L1,15,5,1,enable
25,27-29-01-LS,15,5,2,enable
25,27-30-01-L1,15,6,1,enable
25,27-30-01-LS,15,6,2,enable
25,27-31-01-L1,16,5,1,enable
25,27-31-01-LS,16,5,2,enable
25,27-32-01-L1,16,6,1,enable
25,27-32-01-LS,16,6,2,enable
25,27-33-01-L1,17,5,1,enable
25,27-33-01-LS,17,5,2,enable
25,27-34-01-L1,17,6,1,enable
25,27-34-01-LS,17,6,2,enable
25,27-35-01-L1,18,5,1,enable
25,27-35-01-LS,18,5,2,enable
25,27-36-01-L1,18,6,1,enable
25,27-36-01-LS,18,6,2,enable
25,27-37-01-L1,19,5,1,enable
25,27-37-01-LS,19,5,2,enable
25,27-38-01-L1,19,6,1,enable
25,27-38-01-LS,19,6,2,enable
25,27-39-01-L1,20,5,1,enable
25,27-39-01-LS,20,5,2,enable
25,27-40-01-L1,20,6,1,enable
25,27-40-01-LS,20,6,2,enable
25,27-41-01-L1,21,5,1,enable
25,27-41-01-LS,21,5,2,enable
25,27-42-01-L1,21,6,1,enable
25,27-42-01-LS,21,6,2,enable
25,27-43-01-L1,22,5,1,enable
25,27-43-01-LS,22,5,2,enable
25,27-44-01-L1,22,6,1,enable
25,27-44-01-LS,22,6,2,enable
25,27-45-01-L1,23,5,1,enable
25,27-45-01-LS,23,5,2,enable
25,27-46-01-L1,23,6,1,enable
25,27-46-01-LS,23,6,2,enable
25,27-47-01-L1,24,5,1,enable
25,27-47-01-LS,24,5,2,enable
25,27-48-01-L1,24,6,1,enable
25,28-11-01-L1,6,7,1,enable
25,28-11-01-LS,6,7,2,enable
25,28-12-01-L1,6,8,1,enable
25,28-12-01-LS,6,8,2,enable
25,28-13-01-L1,7,7,1,enable
25,28-13-01-LS,7,7,2,enable
25,28-14-01-L1,7,8,1,enable
25,28-14-01-LS,7,8,2,enable
25,28-15-01-L1,8,7,1,enable
25,28-15-01-LS,8,7,2,enable
25,28-16-01-L1,8,8,1,enable
25,28-16-01-LS,8,8,2,enable
25,28-17-01-L1,9,7,1,enable
25,28-17-01-LS,9,7,2,enable
25,28-18-01-L1,9,8,1,enable
25,28-18-01-LS,9,8,2,enable
25,28-19-01-L1,10,7,1,enable
25,28-19-01-LS,10,7,2,enable
25,28-20-01-L1,10,8,1,enable
25,28-20-01-LS,10,8,2,enable
25,28-21-01-L1,11,7,1,enable
25,28-21-01-LS,11,7,2,enable
25,28-22-01-L1,11,8,1,enable
25,28-22-01-LS,11,8,2,enable
25,28-23-01-L1,12,7,1,enable
25,28-23-01-LS,12,7,2,enable
25,28-24-01-L1,12,8,1,enable
25,28-24-01-LS,12,8,2,enable
25,28-25-01-L1,13,7,1,enable
25,28-25-01-LS,13,7,2,enable
25,28-26-01-L1,13,8,1,enable
25,28-26-01-LS,13,8,2,enable
25,28-27-01-L1,14,7,1,enable
25,28-27-01-LS,14,7,2,enable
25,28-28-01-L1,14,8,1,enable
25,28-28-01-LS,14,8,2,enable
25,28-29-01-L1,15,7,1,enable
25,28-29-01-LS,15,7,2,enable
25,28-30-01-L1,15,8,1,enable
25,28-30-01-LS,15,8,2,enable
25,28-31-01-L1,16,7,1,enable
25,28-31-01-LS,16,7,2,enable
25,28-32-01-L1,16,8,1,enable
25,28-32-01-LS,16,8,2,enable
25,28-33-01-L1,17,7,1,enable
25,28-33-01-LS,17,7,2,enable
25,28-34-01-L1,17,8,1,enable
25,28-34-01-LS,17,8,2,enable
25,28-35-01-L1,18,7,1,enable
25,28-35-01-LS,18,7,2,enable
25,28-36-01-L1,18,8,1,enable
25,28-36-01-LS,18,8,2,enable
25,28-37-01-L1,19,7,1,enable
25,28-37-01-LS,19,7,2,enable
25,28-38-01-L1,19,8,1,enable
25,28-38-01-LS,19,8,2,enable
25,28-39-01-L1,20,7,1,enable
25,28-39-01-LS,20,7,2,enable
25,28-40-01-L1,20,8,1,enable
25,28-40-01-LS,20,8,2,enable
25,28-41-01-L1,21,7,1,enable
25,28-41-01-LS,21,7,2,enable
25,28-42-01-L1,21,8,1,enable
25,28-42-01-LS,21,8,2,enable
25,28-43-01-L1,22,7,1,enable
25,28-43-01-LS,22,7,2,enable
25,28-44-01-L1,22,8,1,enable
25,28-44-01-LS,22,8,2,enable
25,28-45-01-L1,23,7,1,enable
25,28-45-01-LS,23,7,2,enable
25,28-46-01-L1,23,8,1,enable
25,28-46-01-LS,23,8,2,enable
25,28-47-01-L1,24,7,1,enable
25,28-48-01-L1,24,8,1,enable
25,29-11-01-L1,6,9,1,enable
25,29-11-01-LS,6,9,2,enable
25,29-12-01-L1,6,10,1,enable
25,29-12-01-LS,6,10,2,enable
25,29-13-01-L1,7,9,1,enable
25,29-13-01-LS,7,9,2,enable
25,29-14-01-L1,7,10,1,enable
25,29-14-01-LS,7,10,2,enable
25,29-15-01-L1,8,9,1,enable
25,29-15-01-LS,8,9,2,enable
25,29-16-01-L1,8,10,1,enable
25,29-16-01-LS,8,10,2,enable
25,29-17-01-L1,9,9,1,enable
25,29-17-01-LS,9,9,2,enable
25,29-18-01-L1,9,10,1,enable
25,29-18-01-LS,9,10,2,enable
25,29-19-01-L1,10,9,1,enable
25,29-19-01-LS,10,9,2,enable
25,29-20-01-L1,10,10,1,enable
25,29-20-01-LS,10,10,2,enable
25,29-21-01-L1,11,9,1,enable
25,29-21-01-LS,11,9,2,enable
25,29-22-01-L1,11,10,1,enable
25,29-22-01-LS,11,10,2,enable
25,29-23-01-L1,12,9,1,enable
25,29-23-01-LS,12,9,2,enable
25,29-24-01-L1,12,10,1,enable
25,29-24-01-LS,12,10,2,enable
25,29-25-01-L1,13,9,1,enable
25,29-25-01-LS,13,9,2,enable
25,29-26-01-L1,13,10,1,enable
25,29-26-01-LS,13,10,2,enable
25,29-27-01-L1,14,9,1,enable
25,29-27-01-LS,14,9,2,enable
25,29-28-01-L1,14,10,1,enable
25,29-28-01-LS,14,10,2,enable
25,29-29-01-L1,15,9,1,enable
25,29-29-01-LS,15,9,2,enable
25,29-30-01-L1,15,10,1,enable
25,29-30-01-LS,15,10,2,enable
25,29-31-01-L1,16,9,1,enable
25,29-31-01-LS,16,9,2,enable
25,29-32-01-L1,16,10,1,enable
25,29-32-01-LS,16,10,2,enable
25,29-33-01-L1,17,9,1,enable
25,29-33-01-LS,17,9,2,enable
25,29-34-01-L1,17,10,1,enable
25,29-34-01-LS,17,10,2,enable
25,29-35-01-L1,18,9,1,enable
25,29-35-01-LS,18,9,2,enable
25,29-36-01-L1,18,10,1,enable
25,29-36-01-LS,18,10,2,enable
25,29-37-01-L1,19,9,1,enable
25,29-37-01-LS,19,9,2,enable
25,29-38-01-L1,19,10,1,enable
25,29-38-01-LS,19,10,2,enable
25,29-39-01-L1,20,9,1,enable
25,29-39-01-LS,20,9,2,enable
25,29-40-01-L1,20,10,1,enable
25,29-40-01-LS,20,10,2,enable
25,29-41-01-L1,21,9,1,enable
25,29-41-01-LS,21,9,2,enable
25,29-42-01-L1,21,10,1,enable
25,29-42-01-LS,21,10,2,enable
25,29-43-01-L1,22,9,1,enable
25,29-43-01-LS,22,9,2,enable
25,29-44-01-L1,22,10,1,enable
25,29-44-01-LS,22,10,2,enable
25,29-45-01-L1,23,9,1,enable
25,29-45-01-LS,23,9,2,enable
25,29-46-01-L1,23,10,1,enable
25,29-46-01-LS,23,10,2,enable
25,29-47-01-LS,24,9,1,enable
25,29-48-01-L1,24,10,1,enable
25,29-48-01-LS,24,10,2,enable
25,29-49-01-LS,25,9,1,enable
25,29-50-01-L1,25,10,1,enable
25,29-50-01-LS,25,10,2,enable
25,29-51-01-LS,26,9,1,enable
25,29-52-01-L1,26,10,1,enable
25,29-52-01-LS,26,10,2,enable
25,29-54-01-L1,27,10,1,enable
25,29-54-01-LS,27,10,2,enable
25,30-11-01-L1,6,11,1,enable
25,30-11-01-LS,6,11,2,enable
25,30-12-01-L1,6,12,1,enable
25,30-12-01-LS,6,12,2,enable
25,30-13-01-L1,7,11,1,enable
25,30-13-01-LS,7,11,2,enable
25,30-14-01-L1,7,12,1,enable
25,30-14-01-LS,7,12,2,enable
25,30-15-01-L1,8,11,1,enable
25,30-15-01-LS,8,11,2,enable
25,30-16-01-L1,8,12,1,enable
25,30-16-01-LS,8,12,2,enable
25,30-17-01-L1,9,11,1,enable
25,30-17-01-LS,9,11,2,enable
25,30-18-01-L1,9,12,1,enable
25,30-18-01-LS,9,12,2,enable
25,30-19-01-L1,10,11,1,enable
25,30-19-01-LS,10,11,2,enable
25,30-20-01-L1,10,12,1,enable
25,30-20-01-LS,10,12,2,enable
25,30-21-01-L1,11,11,1,enable
25,30-21-01-LS,11,11,2,enable
25,30-22-01-L1,11,12,1,enable
25,30-22-01-LS,11,12,2,enable
25,30-23-01-L1,12,11,1,enable
25,30-23-01-LS,12,11,2,enable
25,30-24-01-L1,12,12,1,enable
25,30-24-01-LS,12,12,2,enable
25,30-25-01-L1,13,11,1,enable
25,30-25-01-LS,13,11,2,enable
25,30-26-01-L1,13,12,1,enable
25,30-26-01-LS,13,12,2,enable
25,30-27-01-L1,14,11,1,enable
25,30-27-01-LS,14,11,2,enable
25,30-28-01-L1,14,12,1,enable
25,30-28-01-LS,14,12,2,enable
25,30-29-01-L1,15,11,1,enable
25,30-29-01-LS,15,11,2,enable
25,30-30-01-L1,15,12,1,enable
25,30-30-01-LS,15,12,2,enable
25,30-31-01-L1,16,11,1,enable
25,30-31-01-LS,16,11,2,enable
25,30-32-01-L1,16,12,1,enable
25,30-32-01-LS,16,12,2,enable
25,30-33-01-L1,17,11,1,enable
25,30-33-01-LS,17,11,2,enable
25,30-34-01-L1,17,12,1,enable
25,30-34-01-LS,17,12,2,enable
25,30-35-01-L1,18,11,1,enable
25,30-35-01-LS,18,11,2,enable
25,30-36-01-L1,18,12,1,enable
25,30-36-01-LS,18,12,2,enable
25,30-37-01-L1,19,11,1,enable
25,30-37-01-LS,19,11,2,enable
25,30-38-01-L1,19,12,1,enable
25,30-38-01-LS,19,12,2,enable
25,30-39-01-L1,20,11,1,enable
25,30-39-01-LS,20,11,2,enable
25,30-40-01-L1,20,12,1,enable
25,30-40-01-LS,20,12,2,enable
25,30-41-01-L1,21,11,1,enable
25,30-41-01-LS,21,11,2,enable
25,30-42-01-L1,21,12,1,enable
25,30-42-01-LS,21,12,2,enable
25,30-43-01-L1,22,11,1,enable
25,30-43-01-LS,22,11,2,enable
25,30-44-01-L1,22,12,1,enable
25,30-44-01-LS,22,12,2,enable
25,30-45-01-L1,23,11,1,enable
25,30-45-01-LS,23,11,2,enable
25,30-46-01-L1,23,12,1,enable
25,30-46-01-LS,23,12,2,enable
25,30-47-01-L1,24,11,1,enable
25,30-47-01-LS,24,11,2,enable
25,30-48-01-L1,24,12,1,enable
25,30-48-01-LS,24,12,2,enable
25,30-49-01-L1,25,11,1,enable
25,30-49-01-LS,25,11,2,enable
25,30-50-01-L1,25,12,1,enable
25,30-50-01-LS,25,12,2,enable
25,30-51-01-L1,26,11,1,enable
25,30-51-01-LS,26,11,2,enable
25,30-52-01-L1,26,12,1,enable
25,30-52-01-LS,26,12,2,enable
25,30-53-01-L1,27,11,1,enable
25,30-53-01-LS,27,11,2,enable
25,30-54-01-L1,27,12,1,enable
25,30-54-01-LS,27,12,2,enable
25,30-56-01-L1,28,12,1,enable
25,31-11-01-L1,6,13,1,enable
25,31-11-01-LS,6,13,2,enable
25,31-12-01-L1,6,14,1,enable
25,31-12-01-LS,6,14,2,enable
25,31-13-01-L1,7,13,1,enable
25,31-13-01-LS,7,13,2,enable
25,31-14-01-L1,7,14,1,enable
25,31-14-01-LS,7,14,2,enable
25,31-15-01-L1,8,13,1,enable
25,31-15-01-LS,8,13,2,enable
25,31-16-01-L1,8,14,1,enable
25,31-16-01-LS,8,14,2,enable
25,31-17-01-L1,9,13,1,enable
25,31-17-01-LS,9,13,2,enable
25,31-18-01-L1,9,14,1,enable
25,31-18-01-LS,9,14,2,enable
25,31-19-01-L1,10,13,1,enable
25,31-19-01-LS,10,13,2,enable
25,31-20-01-L1,10,14,1,enable
25,31-20-01-LS,10,14,2,enable
25,31-21-01-L1,11,13,1,enable
25,31-21-01-LS,11,13,2,enable
25,31-22-01-L1,11,14,1,enable
25,31-22-01-LS,11,14,2,enable
25,31-23-01-L1,12,13,1,enable
25,31-23-01-LS,12,13,2,enable
25,31-24-01-L1,12,14,1,enable
25,31-24-01-LS,12,14,2,enable
25,31-25-01-L1,13,13,1,enable
25,31-25-01-LS,13,13,2,enable
25,31-26-01-L1,13,14,1,enable
25,31-26-01-LS,13,14,2,enable
25,31-27-01-L1,14,13,1,enable
25,31-27-01-LS,14,13,2,enable
25,31-28-01-L1,14,14,1,enable
25,31-28-01-LS,14,14,2,enable
25,31-29-01-L1,15,13,1,enable
25,31-29-01-LS,15,13,2,enable
25,31-30-01-L1,15,14,1,enable
25,31-30-01-LS,15,14,2,enable
25,31-31-01-L1,16,13,1,enable
25,31-31-01-LS,16,13,2,enable
25,31-32-01-L1,16,14,1,enable
25,31-32-01-LS,16,14,2,enable
25,31-33-01-L1,17,13,1,enable
25,31-33-01-LS,17,13,2,enable
25,31-34-01-L1,17,14,1,enable
25,31-34-01-LS,17,14,2,enable
25,31-35-01-L1,18,13,1,enable
25,31-35-01-LS,18,13,2,enable
25,31-36-01-L1,18,14,1,enable
25,31-36-01-LS,18,14,2,enable
25,31-37-01-L1,19,13,1,enable
25,31-37-01-LS,19,13,2,enable
25,31-38-01-L1,19,14,1,enable
25,31-38-01-LS,19,14,2,enable
25,31-39-01-L1,20,13,1,enable
25,31-39-01-LS,20,13,2,enable
25,31-40-01-L1,20,14,1,enable
25,31-40-01-LS,20,14,2,enable
25,31-41-01-L1,21,13,1,enable
25,31-41-01-LS,21,13,2,enable
25,31-42-01-L1,21,14,1,enable
25,31-42-01-LS,21,14,2,enable
25,31-43-01-L1,22,13,1,enable
25,31-43-01-LS,22,13,2,enable
25,31-44-01-L1,22,14,1,enable
25,31-44-01-LS,22,14,2,enable
25,31-45-01-L1,23,13,1,enable
25,31-45-01-LS,23,13,2,enable
25,31-46-01-L1,23,14,1,enable
25,31-46-01-LS,23,14,2,enable
25,31-47-01-L1,24,13,1,enable
25,31-47-01-LS,24,13,2,enable
25,31-48-01-L1,24,14,1,enable
25,31-48-01-LS,24,14,2,enable
25,31-49-01-L1,25,13,1,enable
25,31-49-01-LS,25,13,2,enable
25,31-50-01-L1,25,14,1,enable
25,31-50-01-LS,25,14,2,enable
25,31-51-01-L1,26,13,1,enable
25,31-51-01-LS,26,13,2,enable
25,31-52-01-L1,26,14,1,enable
25,31-52-01-LS,26,14,2,enable
25,31-53-01-L1,27,13,1,enable
25,31-53-01-LS,27,13,2,enable
25,31-54-01-L1,27,14,1,enable
25,31-54-01-LS,27,14,2,enable
25,31-55-01-L1,28,13,1,enable
25,31-57-01-L1,29,13,1,enable
25,32-11-01-L1,6,15,1,enable
25,32-11-01-LS,6,15,2,enable
25,32-12-01-L1,6,16,1,enable
25,32-12-01-LS,6,16,2,enable
25,32-13-01-L1,7,15,1,enable
25,32-13-01-LS,7,15,2,enable
25,32-14-01-L1,7,16,1,enable
25,32-14-01-LS,7,16,2,enable
25,32-15-01-L1,8,15,1,enable
25,32-15-01-LS,8,15,2,enable
25,32-16-01-L1,8,16,1,enable
25,32-16-01-LS,8,16,2,enable
25,32-17-01-L1,9,15,1,enable
25,32-17-01-LS,9,15,2,enable
25,32-18-01-L1,9,16,1,enable
25,32-18-01-LS,9,16,2,enable
25,32-19-01-L1,10,15,1,enable
25,32-19-01-LS,10,15,2,enable
25,32-20-01-L1,10,16,1,enable
25,32-20-01-LS,10,16,2,enable
25,32-21-01-L1,11,15,1,enable
25,32-21-01-LS,11,15,2,enable
25,32-22-01-L1,11,16,1,enable
25,32-22-01-LS,11,16,2,enable
25,32-23-01-L1,12,15,1,enable
25,32-23-01-LS,12,15,2,enable
25,32-24-01-L1,12,16,1,enable
25,32-24-01-LS,12,16,2,enable
25,32-25-01-L1,13,15,1,enable
25,32-25-01-LS,13,15,2,enable
25,32-26-01-L1,13,16,1,enable
25,32-26-01-LS,13,16,2,enable
25,32-27-01-L1,14,15,1,enable
25,32-27-01-LS,14,15,2,enable
25,32-28-01-L1,14,16,1,enable
25,32-28-01-LS,14,16,2,enable
25,32-29-01-L1,15,15,1,enable
25,32-29-01-LS,15,15,2,enable
25,32-30-01-L1,15,16,1,enable
25,32-30-01-LS,15,16,2,enable
25,32-31-01-L1,16,15,1,enable
25,32-31-01-LS,16,15,2,enable
25,32-32-01-L1,16,16,1,enable
25,32-32-01-LS,16,16,2,enable
25,32-33-01-L1,17,15,1,enable
25,32-33-01-LS,17,15,2,enable
25,32-34-01-L1,17,16,1,enable
25,32-34-01-LS,17,16,2,enable
25,32-35-01-L1,18,15,1,enable
25,32-35-01-LS,18,15,2,enable
25,32-36-01-L1,18,16,1,enable
25,32-36-01-LS,18,16,2,enable
25,32-37-01-L1,19,15,1,enable
25,32-37-01-LS,19,15,2,enable
25,32-38-01-L1,19,16,1,enable
25,32-38-01-LS,19,16,2,enable
25,32-39-01-L1,20,15,1,enable
25,32-39-01-LS,20,15,2,enable
25,32-40-01-L1,20,16,1,enable
25,32-40-01-LS,20,16,2,enable
25,32-41-01-L1,21,15,1,enable
25,32-41-01-LS,21,15,2,enable
25,32-42-01-L1,21,16,1,enable
25,32-42-01-LS,21,16,2,enable
25,32-43-01-L1,22,15,1,enable
25,32-43-01-LS,22,15,2,enable
25,32-44-01-L1,22,16,1,enable
25,32-44-01-LS,22,16,2,enable
25,32-45-01-L1,23,15,1,enable
25,32-45-01-LS,23,15,2,enable
25,32-46-01-L1,23,16,1,enable
25,32-46-01-LS,23,16,2,enable
25,32-47-01-L1,24,15,1,enable
25,32-47-01-LS,24,15,2,enable
25,32-48-01-L1,24,16,1,enable
25,32-48-01-LS,24,16,2,enable
25,32-49-01-L1,25,15,1,enable
25,32-49-01-LS,25,15,2,enable
25,32-50-01-L1,25,16,1,enable
25,32-50-01-LS,25,16,2,enable
25,32-51-01-L1,26,15,1,enable
25,32-51-01-LS,26,15,2,enable
25,32-52-01-L1,26,16,1,enable
25,32-52-01-LS,26,16,2,enable
25,32-53-01-L1,27,15,1,enable
25,32-53-01-LS,27,15,2,enable
25,32-54-01-L1,27,16,1,enable
25,32-54-01-LS,27,16,2,enable
25,32-55-01-L1,28,15,1,enable
25,32-55-01-LS,28,15,2,enable
25,32-56-01-L1,28,16,1,enable
25,32-56-01-LS,28,16,2,enable
25,32-57-01-L1,29,15,1,enable
25,32-57-01-LS,29,15,2,enable
25,32-58-01-L1,29,16,1,enable
25,32-58-01-LS,29,16,2,enable
25,32-59-01-L1,30,15,1,enable
25,32-59-01-LS,30,15,2,enable
25,32-60-01-L1,30,16,1,enable
25,32-60-01-LS,30,16,2,enable
25,32-61-01-L1,31,15,1,enable
25,32-62-01-L1,31,16,1,enable
25,32-63-01-L1,32,15,1,enable
25,32-64-01-L1,32,16,1,enable
25,32-65-01-L1,33,15,1,enable
25,32-66-01-L1,33,16,1,enable
25,32-67-01-L1,34,15,1,enable
25,32-68-01-L1,34,16,1,enable
25,32-69-01-L1,35,15,1,enable
25,32-70-01-L1,35,16,1,enable
25,32-71-01-L1,36,15,1,enable
25,32-72-01-L1,36,16,1,enable
25,32-73-01-L1,37,15,1,enable
25,32-74-01-L1,37,16,1,enable
25,32-75-01-L1,38,15,1,enable
25,32-76-01-L1,38,16,1,enable
25,32-77-01-L1,39,15,1,enable
25,32-78-01-L1,39,16,1,enable
25,32-79-01-L1,40,15,1,enable
25,32-80-01-L1,40,16,1,enable
25,33-11-01-L1,6,17,1,enable
25,33-11-01-LS,6,17,2,enable
25,33-12-01-L1,6,18,1,enable
25,33-12-01-LS,6,18,2,enable
25,33-13-01-L1,7,17,1,enable
25,33-13-01-LS,7,17,2,enable
25,33-14-01-L1,7,18,1,enable
25,33-14-01-LS,7,18,2,enable
25,33-15-01-L1,8,17,1,enable
25,33-15-01-LS,8,17,2,enable
25,33-16-01-L1,8,18,1,enable
25,33-16-01-LS,8,18,2,enable
25,33-17-01-L1,9,17,1,enable
25,33-17-01-LS,9,17,2,enable
25,33-18-01-L1,9,18,1,enable
25,33-18-01-LS,9,18,2,enable
25,33-19-01-L1,10,17,1,enable
25,33-19-01-LS,10,17,2,enable
25,33-20-01-L1,10,18,1,enable
25,33-20-01-LS,10,18,2,enable
25,33-21-01-L1,11,17,1,enable
25,33-21-01-LS,11,17,2,enable
25,33-22-01-L1,11,18,1,enable
25,33-22-01-LS,11,18,2,enable
25,33-23-01-L1,12,17,1,enable
25,33-23-01-LS,12,17,2,enable
25,33-24-01-L1,12,18,1,enable
25,33-24-01-LS,12,18,2,enable
25,33-25-01-L1,13,17,1,enable
25,33-25-01-LS,13,17,2,enable
25,33-26-01-L1,13,18,1,enable
25,33-26-01-LS,13,18,2,enable
25,33-27-01-L1,14,17,1,enable
25,33-27-01-LS,14,17,2,enable
25,33-28-01-L1,14,18,1,enable
25,33-28-01-LS,14,18,2,enable
25,33-29-01-L1,15,17,1,enable
25,33-29-01-LS,15,17,2,enable
25,33-30-01-L1,15,18,1,enable
25,33-30-01-LS,15,18,2,enable
25,33-31-01-L1,16,17,1,enable
25,33-31-01-LS,16,17,2,enable
25,33-32-01-L1,16,18,1,enable
25,33-32-01-LS,16,18,2,enable
25,33-33-01-L1,17,17,1,enable
25,33-33-01-LS,17,17,2,enable
25,33-34-01-L1,17,18,1,enable
25,33-34-01-LS,17,18,2,enable
25,33-35-01-L1,18,17,1,enable
25,33-35-01-LS,18,17,2,enable
25,33-36-01-L1,18,18,1,enable
25,33-36-01-LS,18,18,2,enable
25,33-37-01-L1,19,17,1,enable
25,33-37-01-LS,19,17,2,enable
25,33-38-01-L1,19,18,1,enable
25,33-38-01-LS,19,18,2,enable
25,33-39-01-L1,20,17,1,enable
25,33-39-01-LS,20,17,2,enable
25,33-40-01-L1,20,18,1,enable
25,33-40-01-LS,20,18,2,enable
25,33-41-01-L1,21,17,1,enable
25,33-41-01-LS,21,17,2,enable
25,33-42-01-L1,21,18,1,enable
25,33-42-01-LS,21,18,2,enable
25,33-43-01-L1,22,17,1,enable
25,33-43-01-LS,22,17,2,enable
25,33-44-01-L1,22,18,1,enable
25,33-44-01-LS,22,18,2,enable
25,33-45-01-L1,23,17,1,enable
25,33-45-01-LS,23,17,2,enable
25,33-46-01-L1,23,18,1,enable
25,33-46-01-LS,23,18,2,enable
25,33-47-01-L1,24,17,1,enable
25,33-47-01-LS,24,17,2,enable
25,33-48-01-L1,24,18,1,enable
25,33-48-01-LS,24,18,2,enable
25,33-49-01-L1,25,17,1,enable
25,33-49-01-LS,25,17,2,enable
25,33-50-01-L1,25,18,1,enable
25,33-50-01-LS,25,18,2,enable
25,33-51-01-L1,26,17,1,enable
25,33-51-01-LS,26,17,2,enable
25,33-52-01-L1,26,18,1,enable
25,33-52-01-LS,26,18,2,enable
25,33-53-01-L1,27,17,1,enable
25,33-53-01-LS,27,17,2,enable
25,33-54-01-L1,27,18,1,enable
25,33-54-01-LS,27,18,2,enable
25,33-55-01-L1,28,17,1,enable
25,33-55-01-LS,28,17,2,enable
25,33-56-01-L1,28,18,1,enable
25,33-56-01-LS,28,18,2,enable
25,33-57-01-L1,29,17,1,enable
25,33-57-01-LS,29,17,2,enable
25,33-58-01-L1,29,18,1,enable
25,33-58-01-LS,29,18,2,enable
25,33-59-01-L1,30,17,1,enable
25,33-59-01-LS,30,17,2,enable
25,33-60-01-L1,30,18,1,enable
25,33-60-01-LS,30,18,2,enable
25,33-61-01-L1,31,17,1,enable
25,33-62-01-L1,31,18,1,enable
25,33-63-01-L1,32,17,1,enable
25,33-64-01-L1,32,18,1,enable
25,33-65-01-L1,33,17,1,enable
25,33-66-01-L1,33,18,1,enable
25,33-67-01-L1,34,17,1,enable
25,33-68-01-L1,34,18,1,enable
25,33-69-01-L1,35,17,1,enable
25,33-70-01-L1,35,18,1,enable
25,33-71-01-L1,36,17,1,enable
25,33-72-01-L1,36,18,1,enable
25,33-73-01-L1,37,17,1,enable
25,33-74-01-L1,37,18,1,enable
25,33-75-01-L1,38,17,1,enable
25,33-76-01-L1,38,18,1,enable
25,33-77-01-L1,39,17,1,enable
25,33-78-01-L1,39,18,1,enable
25,33-79-01-L1,40,17,1,enable
25,33-80-01-L1,40,18,1,enable